city,postal_code,latitude,longitude
Aach,"78267
",49.7894542,6.5906612
Aachen,"52062–52080
",50.776351,6.083862
Aalen,"73430–73434, 73453
",48.8362705,10.0931765
Abenberg,"91183
",49.2335534,10.93205621301733
Abensberg,"93326
",48.8332409,11.8570782
Achern,"77855
",48.6300161,8.0735581
Achim,"28832
",53.0096048,9.039649
Adelsheim,"74740
",49.4053706,9.3903482
Adenau,"53511–53518
",50.3823283,6.9304002
Adorf/Vogtl.,"08626
",50.3206834,12.2535919
Ahaus,"48683
",52.0761541,7.004876
Ahlen,"59227, 59229
",51.7627633,7.8909086
Ahrensburg,"22926
",53.6736529,10.2358999
Aichach,"86551
",48.4591478,11.1309953
Aichtal,"72631
",48.6278878,9.2412617
Aken (Elbe),"06385,06386 (Kleinzerbst)Vorlage:Infobox Gemeinde in Deutschland/Wartung/PLZ enthält Text
",51.85,12.05
Albstadt,"72458–72461
",48.233048,8.9991483
Alfeld (Leine),"31061
",51.9863077,9.8247473
Allendorf (Lumda),"35469
",50.6786638,8.8229355
Allstedt,"06542
",51.402697,11.3873822
Alpirsbach,"72275
",48.3456021,8.4033079
Alsdorf,"52477
",49.8885782,6.4643156
Alsfeld,"36304
",50.7523545,9.268355
Alsleben (Saale),"06425
",51.7107246,11.6671591
Altdorf bei Nürnberg,"90518
",49.3858107,11.3564341
Altena,"58762
",51.2990263,7.6734841
Altenberg,"01773,01778 (Fürstenau, Fürstenwalde, Geising, Lauenstein, Liebenau, Müglitz)Vorlage:Infobox Gemeinde in Deutschland/Wartung/PLZ enthält Text
",50.766598,13.7523234
Altenburg,"04600
",50.9852411,12.4340988
Altenkirchen (Westerwald),"57610
",50.6880109,7.6477412
Altensteig,"72213
",48.5878287,8.6052271
Altentreptow,"17087
",53.6929029,13.2512464
Altlandsberg,"15345
",52.5614869,13.7245542
Altötting,"84503
",48.2268085,12.6757914
Alzenau,"63755
",50.0833781,9.0665847
Alzey,"55232
",49.7455695,8.1150946
Amberg,"92224
",49.4454211,11.858728
Amöneburg,"35287
",50.79946485,8.941291794880504
Amorbach,"63916
",49.643684,9.2225034
Amt Creuzburg,"99831, 99826
",51.0666037,10.2782817
An der Schmücke,"06577
",51.2932423,11.180359155289437
Andernach,"56626
",50.4391924,7.4023145
Angermünde,"16278
",53.017276,13.9981503
Anklam,"17389 (Anklam mit Gellendin) 17392 (Pelsin mit Stretense)Vorlage:Infobox Gemeinde in Deutschland/Wartung/PLZ enthält Text
",53.8560526,13.688091
Annaberg-Buchholz,"09456
",50.5788781,13.0106108
Annaburg,"06925
",51.7327678,13.0434296
Annweiler am Trifels,"76855
",49.2027254,7.9682264
Ansbach,"91522
",49.3028611,10.5722288
Apolda,"99510
",51.0227878,11.5129742
Arendsee (Altmark),"39619
",52.83863315,11.397528628077042
Arneburg,"39596
",52.674454,12.0035022
Arnis,"24399
",54.63008,9.9327513
Arnsberg,"59755, 59757, 59759, 59821, 59823
",51.4002384,8.0605908
Arnstadt,"99310
",50.8349097,10.9461479
Arnstein,"97450
",49.9779268,9.968448
Arnstein,"06456
",49.9779268,9.968448
Artern,"06556
",51.3627798,11.2935249
Arzberg,"95659
",50.0567356,12.1859087
Aschaffenburg,"63739, 63741, 63743
",49.9740542,9.1493636
Aschersleben,"06449
",51.7559549,11.462134
Asperg,"71679
",48.9058591,9.1350865
Aßlar,"35614,35630 (Heinrichsegen)Vorlage:Infobox Gemeinde in Deutschland/Wartung/PLZ enthält Text
",50.5927946,8.4649082
Attendorn,"57439
",51.1250541,7.9010992
Aub,"97239
",49.5524989,10.0652861
Aue-Bad Schlema,"08280 (Aue),08301 (Bad Schlema)Vorlage:Infobox Gemeinde in Deutschland/Wartung/PLZ enthält Text
",50.6039112,12.683981
Auerbach in der Oberpfalz,"91275
",49.6923981,11.6325698
Auerbach/Vogtl.,"08209
",50.5087816,12.400153
Augsburg,"86150–86199
",48.3668041,10.8986971
Augustusburg,"09573
",50.8144193,13.1009791
Aulendorf,"88326
",47.9528162,9.6409331
Auma-Weidatal,"07955
",50.7082198,11.9177098
Aurich,"26603, 26605, 26607
",53.51228535,7.391528412821689
Babenhausen,"64832
",49.9562183,8.9460279
Bacharach,"55422
",50.0597943,7.7683997
Backnang,"71522, 71570
",48.9470756,9.4297925
Bad Aibling,"83043
",47.8640504,12.0097685
Bad Arolsen,"34454
",51.3649894,9.0376388
Bad Belzig,"14806
",52.1405622,12.5865873
Bad Bentheim,"48455
",52.3024786,7.1605921
Bad Bergzabern,"76887
",49.1028075,7.9991268
Bad Berka,"99438
",50.9002644,11.2829778
Bad Berleburg,"57319
",51.0478493,8.3917759
Bad Berneck im Fichtelgebirge,"95460
",50.05311775,11.686856996989
Bad Bevensen,"29549
",53.0809408,10.5744812
Bad Bibra,"06647
",51.2064665,11.5835806
Bad Blankenburg,"07422
",50.6829946,11.2726327
Bad Bramstedt,"24576
",53.9167,9.88333
Bad Breisig,"53498
",50.5098164,7.2983807
Bad Brückenau,"97769
",50.3101036,9.7892824
Bad Buchau,"88422
",48.0641747,9.6106661
Bad Camberg,"65520
",50.299603,8.2673122
Bad Doberan,"18209
",54.105858,11.9026057
Bad Driburg,"33014
",51.7366427,9.0175012
Bad Düben,"04849
",51.5911653,12.5856428
Bad Dürkheim,"67098
",49.4632944,8.1705063
Bad Dürrenberg,"06231
",51.2998551,12.0665175
Bad Dürrheim,"78073
",48.0222311,8.5299837
Bad Elster,"08645
",50.2811665,12.236949
Bad Ems,"56130
",50.3352062,7.7128538
Baden-Baden,"76530, 76532, 76534
",48.7610716,8.239959
Bad Fallingbostel,"29683
",52.8654484,9.6930195
Bad Frankenhausen/Kyffhäuser,"06567
",51.3560142,11.1005235
Bad Freienwalde (Oder),"16259
",52.787521,14.0300689
Bad Friedrichshall,"74177
",49.2300761,9.212604
Bad Gandersheim,"37581
",51.8704732,10.0297839
Bad Gottleuba-Berggießhübel,"01816
",50.8584186,13.9480444
Bad Griesbach im Rottal,"94086
",48.4513352,13.1931047
Bad Harzburg,"38667
",51.8797558,10.587567113090078
Bad Herrenalb,"76332
",48.7990507,8.4382557
Bad Hersfeld,"36251
",50.8681341,9.7068481
Bad Homburg vor der Höhe,"61348, 61350, 61352
",50.2267699,8.6169093
Bad Honnef,"53604
",50.6448582,7.2272534
Bad Hönningen,"53557
",50.5157382,7.3065922
Bad Iburg,"49186
",52.1543708,8.0448115
Bad Karlshafen,"34385
",51.6253296,9.4431158
Bad Kissingen,"97688
",50.1985698,10.0746833
Bad König,"64732
",49.7435067,9.0262376
Bad Königshofen im Grabfeld,"97631
",50.3019521,10.4693549
Bad Köstritz,"07586
",50.9301118,12.0113701
Bad Kötzting,"93444
",49.169841,12.8782503
Bad Kreuznach,"55543, 55545, 55583Vorlage:Infobox Gemeinde in Deutschland/Wartung/PLZ enthält Text
",49.8490413,7.8626661
Bad Krozingen,"79189
",47.9118288,7.7033313
Bad Laasphe,"57334
",50.9271541,8.4123648
Bad Langensalza,"99947
",51.1082267,10.6464452
Bad Lauchstädt,"06246
",51.3949623,11.9004966
Bad Lausick,"04651
",51.144234,12.6415822
Bad Lauterberg im Harz,"37431
",51.6313633,10.4706667
Bad Liebenstein,"36448
",50.8183801,10.3491578
Bad Liebenwerda,"04924,04895 (Burxdorf),04931 (Kosilenzien, Langenrieth, Möglenz, Neuburxdorf)Vorlage:Infobox Gemeinde in Deutschland/Wartung/PLZ enthält Text
",51.5158115,13.39272
Bad Liebenzell,"75378
",48.7712716,8.7321279
Bad Lippspringe,"33175
",51.7833,8.81667
Bad Lobenstein,"07356
",50.449292,11.6380757
Bad Marienberg (Westerwald),"56470
",50.650076049999996,7.948216997173178
Bad Mergentheim,"97980
",49.490532,9.7730692
Bad Münder am Deister,"31848
",52.1952894,9.4633959
Bad Münstereifel,"53902
",50.5545674,6.7636511
Bad Muskau,"02953
",51.5470046,14.7215146
Bad Nauheim,"61231
",50.3681107,8.7473608
Bad Nenndorf,"31542
",52.3360719,9.3769596
Bad Neuenahr-Ahrweiler,"53474
",50.5444551,7.1186671
Bad Neustadt an der Saale,"97616
",50.322637,10.2164873
Bad Oeynhausen,"32545, 32547, 32549
",52.2014399,8.7981244
Bad Oldesloe,"23843
",53.8096562,10.3733692
Bad Orb,"63619
",50.2276774,9.3485142
Bad Pyrmont,"31812
",51.9850503,9.2434635
Bad Rappenau,"74906
",49.2393031,9.101268
Bad Reichenhall,"83435
",47.7222676,12.8760923
Bad Rodach,"96476
",50.3411272,10.7785015
Bad Sachsa,"37441
",51.5963629,10.5534235
Bad Säckingen,"79713
",47.5525538,7.9495387
Bad Salzdetfurth,"31162
",52.0595144,10.0064728
Bad Salzuflen,"32105, 32107, 32108
",52.0771518,8.7554739
Bad Salzungen,"36433, 36469[2]
",50.812318,10.2320784
Bad Saulgau,"88348
",48.0158071,9.5010309
Bad Schandau,"01814
",50.918091,14.1534018
Bad Schmiedeberg,"06905
",51.6883775,12.7409236
Bad Schussenried,"88427
",48.0047363,9.6561098
Bad Schwalbach,"65307
",50.141688,8.071992
Bad Schwartau,"23611
",53.9196435,10.6978692
Bad Segeberg,"23795
",53.9422672,10.3137943
Bad Sobernheim,"55566
",49.7843963,7.6520457
Bad Soden am Taunus,"65812
",50.1517006,8.4899671
Bad Soden-Salmünster,"63628
",50.2801792,9.3704249
Bad Sooden-Allendorf,"37242
",51.2695391,9.9719975
Bad Staffelstein,"96231
",50.1028339,10.999159
Bad Sulza,"99518, 99510
",51.04268865,11.618380272854765
Bad Sülze,"18334
",54.1119649,12.6581128
Bad Teinach-Zavelstein,"75385
",48.6993063,8.666538337106765
Bad Tennstedt,"99955
",51.1540155,10.8369361
Bad Tölz,"83646
",47.7610641,11.5582933
Bad Urach,"72574
",48.4937953,9.3978845
Bad Vilbel,"61118
",50.19339,8.74918
Bad Waldsee,"88339
",47.9209556,9.7542772
Bad Wildbad,"75323
",48.7502439,8.550301
Bad Wildungen,"34521–34537
",51.1202493,9.1252933
Bad Wilsnack,"19336
",52.9556782,11.9448627
Bad Wimpfen,"74206
",49.2303439,9.1621599
Bad Windsheim,"91438
",49.5020006,10.4175301
Bad Wörishofen,"86825
",48.0059852,10.5921263
Bad Wünnenberg,"33181
",51.5169114,8.6986809
Bad Wurzach,"88410
",47.9078673,9.8949405
Baesweiler,"52499
",50.9074568,6.1826282
Baiersdorf,"91083
",49.6568679,11.0311232
Balingen,"72336
",48.2737512,8.8557862
Ballenstedt,"06493
",51.722527,11.2290268
Balve,"58802
",51.3326498,7.8670563
Bamberg,"96047, 96049, 96050, 96052
",49.8916044,10.8868478
Barby,"39249,39240 (Breitenhagen, Groß Rosenburg, Lödderitz, Sachsendorf, Zuchau)Vorlage:Infobox Gemeinde in Deutschland/Wartung/PLZ enthält Text
",51.9666473,11.8860511
Bargteheide,"22941
",53.7279671,10.2618075
Barmstedt,"25355
",53.7889203,9.7703927
Bärnau,"95671
",49.8109931,12.4304633
Barntrup,"32683
",51.9909552,9.1127565
Barsinghausen,"30890
",52.30223,9.4623741
Barth,"18356
",54.3690547,12.7258585
Baruth/Mark,"15837
",52.0462945,13.5019022
Bassum,"27211
",52.8495881,8.728382
Battenberg (Eder),"35088
",51.0323524,8.6112782
Baumholder,"55774
",49.6167,7.33333
Baunach,"96148
",49.9853262,10.8511236
Baunatal,"34225
",51.2550775,9.4119007
Bautzen,"02625
",51.1813907,14.4275735
Bayreuth,"95444, 95445, 95447, 95448
",49.9427202,11.5763079
Bebra,"36179
",50.9835038,9.8388054
Beckum,"59269
",51.7555148,8.041135
Bedburg,"50181
",50.9972161,6.5767648
Beelitz,"14547
",52.2363582,12.9700041
Beeskow,"15848
",52.1721569,14.2471058
Beilngries,"92339, 92345
",49.035279,11.4733811
Beilstein,"71717, 71543, 71720Vorlage:Infobox Gemeinde in Deutschland/Wartung/PLZ enthält Text
",50.1092636,7.241076
Belgern-Schildau,"04874, 04889Vorlage:Infobox Gemeinde in Deutschland/Wartung/PLZ enthält Text Vorlage:Infobox Verwaltungseinheit in Deutschland/Wartung/PLZ falsch
",51.4456448,12.9301967
Bendorf,"56170
",50.4238296,7.5732901
Bensheim,"64625
",49.6977,8.6288
Berching,"92334
",49.1062614,11.4397894
Berga-Wünschendorf,"07980, 07570
",50.7607112,12.1361757
Bergen,"29303
",49.7808936,7.4176059
Bergen auf Rügen,"18528
",54.4172673,13.4305634
Bergheim,"50126, 50127, 50129
",50.9540457,6.6410004
Bergisch Gladbach,"51427, 51429, 51465, 51467, 51469
",50.9929303,7.1277379
Bergkamen,"59192
",51.6149389,7.6362876
Bergneustadt,"51702
",51.0207425,7.6490729
Berlin,"10115–14199
",52.5170365,13.3888599
Bernau bei Berlin,"16321
",52.6787254,13.5881114
Bernburg (Saale),"06406, 06392
",51.7930788,11.7391606
Bernkastel-Kues,"54470
",49.9157398,7.0708181
Bernsdorf,"02994
",51.3710839,14.0694111
Bernstadt a. d. Eigen,"02748
",51.0474279,14.8269241
Bersenbrück,"49593
",52.5553293,7.9471842
Besigheim,"74354
",48.9996364,9.1417523
Betzdorf,"57518
",50.7879961,7.8723802
Betzenstein,"91282
",49.6808025,11.4177797
Beverungen,"37688
",51.6676535,9.3759072
Bexbach,"66441–66450
",49.347299,7.2548948
Biberach an der Riß,"88400
",48.0984413,9.7899938
Biedenkopf,"35216
",50.9158122,8.5270214
Bielefeld,"33602 – 33739
",52.0191005,8.531007
Biesenthal,"16359
",52.7664978,13.6289589
Bietigheim-Bissingen,"74321
",48.9502631,9.1383314
Billerbeck,"48727
",51.9773625,7.290923
Bingen am Rhein,"55411
",49.9667,7.9
Birkenfeld,"55765
",49.6488236,7.1647477
Bischofsheim in der Rhön,"97653
",50.4011137,10.0075314
Bischofswerda,"01877
",51.1277815,14.1795516
Bismark (Altmark),"39628, 39629
",52.6635807,11.555459
Bitburg,"54634
",49.9732762,6.524947
Bitterfeld-Wolfen,"06749, 06766, 06803, 06808
",51.6425032,12.3076334
Blankenburg (Harz),"06502 (Timmenrode),38889 (Blankenburg (Harz), Cattenstedt, Heimburg, Hüttenrode, Wienrode),38895 (Derenburg)Vorlage:Infobox Gemeinde in Deutschland/Wartung/PLZ enthält Text
",51.7902676,10.9551991
Blankenhain,"99444
",50.8604751,11.3418229
Blaubeuren,"89143
",48.4121233,9.7847091
Blaustein,"89134
",48.4159247,9.9187625
Bleckede,"21354, 19273Vorlage:Infobox Gemeinde in Deutschland/Wartung/PLZ enthält Text
",53.287562,10.731247
Bleicherode,"99752
",51.4400566,10.5727462
Blieskastel,"66440
",49.2370918,7.2599036
Blomberg,"32825
",51.9434473,9.0967908
Blumberg,"78176
",47.8401424,8.534081
Bobingen,"86399
",48.2687941,10.8337852
Böblingen,"71032, 71034
",48.684969,9.0113444
Bocholt,"46395, 46397, 46399
",51.8382715,6.6148669
Bochum,"44787–44894
",51.4818111,7.2196635
Bockenem,"31167
",52.0111484,10.1331159
Bodenwerder,"37619
",51.9752481,9.5139063
Bogen,"94327
",48.9082826,12.7185426
Böhlen,"04564
",51.2027284,12.3859676
Boizenburg/Elbe,"19258
",53.375079,10.7232364
Bonn,"53111–53129, 53173–53179, 53225, 53227, 53229Vorlage:Infobox Gemeinde in Deutschland/Wartung/PLZ enthält Text Vorlage:Infobox Verwaltungseinheit in Deutschland/Wartung/PLZ falsch
",50.735851,7.10066
Bonndorf im Schwarzwald,"79848
",47.8195619,8.3420691
Bönnigheim,"74357
",49.0417185,9.0933985
Bopfingen,"73441
",48.8577633,10.3523096
Boppard,"56154
",50.2312823,7.5885884
Borgentreich,"34434
",51.5702348,9.2362761
Borgholzhausen,"33829
",52.1007247,8.3023897
Borken,"46325
",51.8444777,6.8583277
Borken (Hessen),"34582
",51.0579472,9.2918981
Borkum,"26757
",53.5902946,6.6682175
Borna,"04552
",51.1241649,12.4999055
Bornheim,"53332
",50.7627913,6.9890508
Bottrop,"46236–46244
",51.521581,6.929204
Boxberg,"97944
",50.2731793,6.8751755
Brackenheim,"74336
",49.0784228,9.067437
Brake (Unterweser),"26919
",53.3256109,8.4806296
Brakel,"33034
",51.7168889,9.1841762
Bramsche,"49565
",52.4076948,7.979647
Brandenburg an der Havel,"14770–14776
",52.4108261,12.5497933
Brand-Erbisdorf,"09618
",50.8705512,13.3247933
Brandis,"04821,04824 (Beucha)Vorlage:Infobox Gemeinde in Deutschland/Wartung/PLZ enthält Text
",51.3346604,12.6089036
Braubach,"56338
",50.2751222,7.651073
Braunfels,"35619
",50.5152452,8.390132
Braunlage,"38700, 37444Vorlage:Infobox Gemeinde in Deutschland/Wartung/PLZ enthält Text
",51.7264388,10.6100516
Bräunlingen,"78199
",47.9300645,8.448329
Braunsbedra,"06242, 06259Vorlage:Infobox Gemeinde in Deutschland/Wartung/PLZ enthält Text
",51.2840933,11.8855493
Braunschweig,"38100–38126
",52.2646577,10.5236066
Breckerfeld,"58339
",51.2605046,7.4670542
Bredstedt,"25821
",54.6236326,8.9640834
Breisach am Rhein,"79206
",48.0291415,7.5806123
Bremen,"28195–28779
",53.0758196,8.8071646
Bremerhaven,"27568–27580
",53.5505392,8.5851945
Bremervörde,"27432
",53.4850249,9.1362085
Bretten,"75015
",49.0366265,8.7068077
Breuberg,"64747
",49.8237774,9.0297787
Brilon,"59929
",51.3955721,8.5677743
Brotterode-Trusetal,"98596
",50.7859635,10.4062727
Bruchköbel,"63486
",50.1845,8.9369
Bruchsal,"76646
",49.124118,8.5980244
Brück,"14822
",52.1923564,12.7584313
Brüel,"19412
",53.7344671,11.7158035
Brühl,"50321
",50.8291313,6.9037057
Brunsbüttel,"25541
",53.8972549,9.1395423
Brüssow,"17326
",53.3994602,14.126711
Buchen (Odenwald),"74722
",49.5222974,9.3243187
Buchholz in der Nordheide,"21244
",53.3333021,9.8666653
Buchloe,"86807
",48.0361382,10.7241879
Bückeburg,"31675
",52.2611037,9.0488959
Buckow (Märkische Schweiz),"15377
",52.5672167,14.0761529
Büdelsdorf,"24782
",54.3164345,9.6710695
Büdingen,"63654
",50.2972353,9.0990829
Bühl,"77815
",48.6945066,8.134423
Bünde,"32257
",52.2004727,8.5828944
Büren,"33142
",51.5497446,8.573474968213432
Burg,"39288
",49.9600346,6.3512069
Burgau,"89331
",48.4312893,10.4065009
Burgbernheim,"91593
",49.4513351,10.3229575
Burgdorf,"31303
",52.4438008,10.0078364
Bürgel,"07616
",50.9424523,11.7574105
Burghausen,"84489
",48.1689863,12.8304816
Burgkunstadt,"96224
",50.1428821,11.2515508
Burglengenfeld,"93133
",49.2071077,12.03996
Burgstädt,"09217
",50.9199843,12.8056571
Burg Stargard,"17094
",53.4956816,13.3097058
Burgwedel,"30938
",52.5,9.86667
Burladingen,"72393
",48.2892852,9.1134689
Burscheid,"51399
",51.0824722,7.1212314
Bürstadt,"68642
",49.6531823,8.4747076
Butzbach,"35510
",50.4340422,8.6711184
Bützow,"18246
",53.8500047,11.9832952
Buxtehude,"21614
",53.4767351,9.7003941
Calau,"03205
",51.7466674,13.949307
Calbe (Saale),"39240
",51.9034006,11.7761208
Calw,"75365
",48.7112108,8.7452043
Castrop-Rauxel,"44575, 44577, 44579, 44581
",51.5646195,7.3106175
Celle,"29221–29229
",52.624056,10.081052
Cham,"93413
",49.2178194,12.6663832
Chemnitz,"09111–09131, 09224, 09228, 09247Vorlage:Infobox Gemeinde in Deutschland/Wartung/PLZ enthält Text
",50.8323531,12.918914
Clausthal-Zellerfeld,"38678, 38707, 38709, 38667
",51.8070405,10.3364483
Clingen,"99718
",51.2346746,10.9293611
Cloppenburg,"49661
",52.8461339,8.0438783
Coburg,"96450
",50.258112,10.964463
Cochem,"56812
",50.1483916,7.1663195
Coesfeld,"48653
",51.9458943,7.1691108
Colditz,"04680
",51.1295496,12.8065842
Coswig,"01640
",51.8803541,12.458638
Coswig (Anhalt),"06868, 06869
",51.8803541,12.458638
Cottbus,"03042–03055
",51.7567447,14.3357307
Crailsheim,"74564, 74597
",49.1365626,10.0720195
Creglingen,"97993, 97990
",49.4701503,10.0325388
Creußen,"95473
",49.8438482,11.6252782
Crimmitschau,"08451
",50.8162378,12.3867217
Crivitz,"19089
",53.5781613,11.6470654
Cuxhaven,"27472, 27474, 27476, 27478
",53.58724195,8.88407915140169
Daaden,"57567
",50.7391746,7.96766
Dachau,"85221
",48.2592477,11.4354419
Dahlen,"04774
",51.3660978,12.9984348
Dahme/Mark,"15936
",51.8699392,13.4284903
Dahn,"66994
",49.1493317,7.7802569
Damme,"49401
",52.5212651,8.1957974
Dannenberg (Elbe),"29451
",53.1045441,11.1179194
Dargun,"17159
",53.9,12.85
Darmstadt,"64283–64297
",49.8851869,8.6736295
Dassel,"37586
",51.8019566,9.6899606
Dassow,"23942
",53.9089582,10.9756958
Datteln,"45711
",51.651468,7.3385906
Daun,"54550
",50.1962461,6.8305031
Deggendorf,"94469,94526 (Lehmberg)Vorlage:Infobox Gemeinde in Deutschland/Wartung/PLZ enthält Text
",48.7814115,13.0006423
Deidesheim,"67146
",49.4075922,8.1859168
Delbrück,"33129
",51.7649178,8.5594953
Delitzsch,"04509
",51.5255661,12.342857
Delmenhorst,"27749, 27751, 27753, 27755
",53.048095,8.6286066
Demmin,"17109
",53.9070019,13.0327836
Dessau-Roßlau,"06842–06849,06861, 06862Vorlage:Infobox Gemeinde in Deutschland/Wartung/PLZ enthält Text
",51.8465924,12.2312238
Detmold,"32756, 32758, 32760
",51.936284,8.8791526
Dettelbach,"97335, 97337
",49.8022738,10.1612858
Dieburg,"64807
",49.8949312,8.8368946
Diemelstadt,"34474
",51.4813132,8.992125
Diepholz,"49356
",52.7478987,8.761526143598829
Dierdorf,"56269
",50.5478886,7.6564407
Dietenheim,"89165
",48.2153851,10.0705695
Dietfurt an der Altmühl,"92345
",49.0362476,11.5835436
Dietzenbach,"63128
",50.0171926,8.784277
Diez,"65582
",50.3694175,8.0174521
Dillenburg,"35683–35690
",50.7404535,8.2874957
Dillingen an der Donau,"89407
",48.5812547,10.4951425
Dillingen/Saar,"66763
",49.3552721,6.7243197
Dingelstädt,"37351
",51.312112600000006,10.311077257458898
Dingolfing,"84130
",48.6300801,12.4977434
Dinkelsbühl,"91550
",49.0692306,10.3223475
Dinklage,"49413
",52.6626633,8.1212801
Dinslaken,"46535, 46537, 46539
",51.5623618,6.7345106
Dippoldiswalde,"01744
",50.882202750000005,13.659452632021722
Dissen am Teutoburger Wald,"49201
",52.115769,8.2034345
Ditzingen,"71254
",48.8263983,9.0658446
Döbeln,"04720
",51.1167001,13.1166999
Doberlug-Kirchhain,"03253
",51.6219804,13.5660433
Döbern,"03159
",51.6147262,14.5972172
Dohna,"01809
",50.955232,13.8587012
Dömitz,"19303
",53.1384884,11.2609279
Dommitzsch,"04880
",51.6401155,12.8818456
Donaueschingen,"78166
",47.9534194,8.4959257
Donauwörth,"86609
",48.7180364,10.7807299
Donzdorf,"73072
",48.6856725,9.8107595
Dorfen,"84405, 84428
",48.2746357,12.1530097
Dormagen,"41539–41542
",51.0941656,6.8407931
Dornburg-Camburg,"07774, 07778Vorlage:Infobox Gemeinde in Deutschland/Wartung/PLZ enthält Text
",51.01219675,11.672953668175257
Dornhan,"72175
",48.3502837,8.5078535
Dornstetten,"72280
",48.4663553,8.5012993
Dorsten,"46282, 46284, 46286
",51.6604071,6.9647431
Dortmund,"44135–44388
",51.5142273,7.4652789
Dransfeld,"37125,37127
",51.50528645,9.768435740414162
Drebkau,"03116
",51.6577353,14.2204983
Dreieich,"63303
",50.011974,8.7123912
Drensteinfurt,"48317
",51.7972657,7.7418147
Dresden,"01067–01328, 01465
",51.0493286,13.7381437
Drolshagen,"57489
",51.0239917,7.7740693
Duderstadt,"37115
",51.5123672,10.2610699
Duisburg,"47051–47279
",51.434999,6.759562
Dülmen,"48249
",51.8283677,7.2791406
Düren,"52349, 52351, 52353, 52355
",50.8031684,6.4820806
Düsseldorf,"40210–40629
",51.2254018,6.7763137
Ebeleben,"99713
",51.2827699,10.7302423
Eberbach,"69412, 64754, 69429, 69434Vorlage:Infobox Gemeinde in Deutschland/Wartung/PLZ enthält Text
",49.4635303,8.9855203
Ebermannstadt,"91320
",49.7802113,11.1875112
Ebern,"96106
",50.0943461,10.7950972
Ebersbach an der Fils,"73061
",48.7149061,9.5259189
Ebersbach-Neugersdorf,"02730 (Ebersbach) 02727 (Neugersdorf)Vorlage:Infobox Gemeinde in Deutschland/Wartung/PLZ enthält Text
",51.0007273,14.5986609
Ebersberg,"85560
",48.0765786,11.9647521
Eberswalde,"16225, 16227
",52.8350807,13.7996542
Eckartsberga,"06648
",51.1231891,11.5604073
Eckernförde,"24340
",54.4716456,9.8374947
Edenkoben,"67480
",49.282236,8.1284357
Egeln,"39435
",51.9400891,11.4273755
Eggenfelden,"84307
",48.4031909,12.7626208
Eggesin,"17367,17375 (Hoppenwalde)Vorlage:Infobox Gemeinde in Deutschland/Wartung/PLZ enthält Text
",53.6820915,14.077945
Ehingen (Donau),"89584
",48.2828519,9.7262175
Ehrenfriedersdorf,"09427
",50.6442951,12.9675018
Eibelstadt,"97246
",49.7243433,10.0002727
Eibenstock,"08309
",50.4951715,12.5983957
Eichstätt,"85072
",48.8933417,11.1838965
Eilenburg,"04838
",51.4586736,12.6344389
Einbeck,"37574
",51.8185067,9.8678465
Eisenach,"99817
",50.9747134,10.3193565
Eisenberg,"07607
",50.9691346,11.8961116
Eisenberg (Pfalz),"67304
",49.5589556,8.0732258
Eisenhüttenstadt,"15890
",52.1448863,14.6294413
Eisfeld,"98673
",50.4269984,10.908994
Eisleben,"06295
",51.5283282,11.5465911
Eislingen/Fils,"73054
",48.6986798,9.7065009
Ellingen,"91792
",49.0615224,10.9693369
Ellrich,"99755
",51.587313,10.6649031
Ellwangen (Jagst),"73479
",48.9615975,10.131975
Elmshorn,"25335–25337
",53.7532486,9.6524559
Elsdorf,"50189
",50.9371308,6.5698302
Elsfleth,"26931
",53.2357029,8.4571037
Elsterberg,"07985
",50.6036333,12.176645
Elsterwerda,"04910
",51.4614993,13.5204883
Elstra,"01920
",51.220516,14.1350305
Elterlein,"09481
",50.5769435,12.8688973
Eltmann,"97483
",49.9725016,10.6662064
Eltville am Rhein,"65343–65347
",50.0275441,8.1189741
Elzach,"79215
",48.1757263,8.0718474
Elze,"31008
",52.1187857,9.7386084
Emden,"26721, 26723, 26725
",53.3670541,7.2058304
Emmelshausen,"56281
",50.1557618,7.5557802
Emmendingen,"79312
",48.122497800000005,7.865381383244456
Emmerich am Rhein,"46446
",51.8322137,6.2428283
Emsdetten,"48282
",52.174687,7.5301756
Endingen am Kaiserstuhl,"79346
",48.1412922,7.6999031
Engen,"78234
",47.8532383,8.7704457
Enger,"32130
",52.1394015,8.5588818
Ennepetal,"58256
",51.2967192,7.3693335
Ennigerloh,"59320
",51.8359553,8.0255988
Eppelheim,"69214
",49.4025,8.63306
Eppingen,"75031
",49.1373277,8.9084374
Eppstein,"65817
",50.155,8.3803
Erbach,"89155
",48.3274603,9.8913803
Erbach (Odenwald),"64711,64743 (Marbach)Vorlage:Infobox Gemeinde in Deutschland/Wartung/PLZ enthält Text
",49.6376,9.013
Erbendorf,"92681, 92690
",49.837847,12.0481655
Erding,"85435
",48.3064441,11.9076579
Erftstadt,"50374
",50.8027168,6.8031625
Erfurt,"99084–99099
",50.9777974,11.0287364
Erkelenz,"41812
",51.080992,6.3160684
Erkner,"15537
",52.4259804,13.7542811
Erkrath,"40699
",51.2209866,6.9056079
Erlangen,"91052, 91054, 91056, 91058
",49.5928616,11.0056
Erlenbach am Main,"63906
",49.8046171,9.1594708
Erlensee,"63526,63543 (Bei den Tongruben)Vorlage:Infobox Gemeinde in Deutschland/Wartung/PLZ enthält Text
",50.1624394,8.9846455
Erwitte,"59597
",51.61431,8.3396662
Eschborn,"65760
",50.1504737,8.5607767
Eschenbach in der Oberpfalz,"92676
",49.7531092,11.8294634
Eschershausen,"37632
",51.9270198,9.6376217
Eschwege,"37269
",51.1733518,10.0680632
Eschweiler,"52249
",50.8175029,6.2630894
Esens,"26427
",53.6468107,7.6118499
Espelkamp,"32339
",52.3778041,8.6157377
Essen,"45127–45359
",51.4582235,7.0158171
Esslingen am Neckar,"73728–73734
",48.7427584,9.3071685
Ettenheim,"77955
",48.2545659,7.8080276
Ettlingen,"76275, 76359
",48.9397149,8.40427
Euskirchen,"53879, 53881
",50.6612623,6.7871219
Eutin,"23701
",54.1364642,10.6159077
Falkenberg/Elster,"04895
",51.5854858,13.2435457
Falkensee,"14612
",52.5678244,13.0855621
Falkenstein/Harz,"06333 (Endorf, Neuplatendorf),06463 (Ermsleben, Meisdorf, Reinstedt),06543 (Pansfelde, Wieserode)Vorlage:Infobox Gemeinde in Deutschland/Wartung/PLZ enthält Text
",51.7071447,11.3333212
Falkenstein/Vogtl.,"08223,08239 (Oberlauterbach, Trieb, Schönau)Vorlage:Infobox Gemeinde in Deutschland/Wartung/PLZ enthält Text
",50.4773298,12.3691588
Fehmarn,"23769
",54.4687375,11.134084837911693
Fellbach,"70734, 70736
",48.8181556,9.278085
Felsberg,"34587
",51.1502197,9.451222
Feuchtwangen,"91555
",49.1678603,10.3313268
Filderstadt,"70794
",48.6592625,9.217870092436081
Finsterwalde,"03238
",51.6315282,13.707358
Fladungen,"97650
",50.5210371,10.1458492
Flensburg,"24937–24944
",54.7833021,9.4333264
Flöha,"09557
",50.8503529,13.0772325
Flörsheim am Main,"65439
",50.0296,8.4265
Florstadt,"61197
",50.3173479,8.8653526
Forchheim,"91301
",49.7187319,11.0595749
Forchtenberg,"74670, 74249, 74632, 74639
",49.2889174,9.5608005
Forst (Lausitz),"03149
",51.7438586,14.6455395
Frankenau,"35109–35110
",51.1068994,8.9274787
Frankenberg (Eder),"35066
",51.0771933,8.7908312
Frankenberg/Sa.,"09669
",50.9112082,13.0433344
Frankenthal (Pfalz),"67227
",49.5445804,8.3540061
Frankfurt am Main,"60306–60599, 65929–65936
",50.1106444,8.6820917
Frankfurt (Oder),"15230, 15232, 15234, 15236
",52.3412273,14.549452
Franzburg,"18461
",54.1871931,12.878125
Frauenstein,"09623
",50.8024134,13.5382248
Frechen,"50226
",50.9096219,6.8081935
Freiberg am Neckar,"71691
",48.9345539,9.1922557
Freiberg,"09599, 09596
",50.9169415,13.3428889
Freiburg im Breisgau,"79098–79117
",47.9960901,7.8494005
Freilassing,"83395
",47.8378039,12.9781408
Freinsheim,"67251, 67098Vorlage:Infobox Gemeinde in Deutschland/Wartung/PLZ enthält Text
",49.5066726,8.2108403
Freising,"85354, 85356
",48.4008273,11.7439565
Freital,"01705
",51.016265,13.6530329
Freren,"49832
",52.4858972,7.5459254
Freudenberg,"97896
",50.8983662,7.8773745
Freudenberg,"57258
",50.8983662,7.8773745
Freudenstadt,"72250
",48.4637727,8.4111727
Freyburg (Unstrut),"06632
",51.2126192,11.7696956
Freystadt,"92342
",49.1989574,11.3285933
Freyung,"94078
",48.8099603,13.5491927
Fridingen an der Donau,"78567
",48.0202558,8.9313419
Friedberg,"86316
",50.3352682,8.7539306
Friedberg (Hessen),"61169
",50.3352682,8.7539306
Friedland,"15848
",53.6716022,13.5487647
Friedland,"17098
",53.6716022,13.5487647
Friedrichroda,"99894
",50.861175,10.5639143
Friedrichsdorf,"61381
",50.2556672,8.6511395
Friedrichshafen,"88045, 88046, 88048
",47.6500279,9.4800858
Friedrichstadt,"25840
",54.3760004,9.0897716
Friedrichsthal,"66299
",49.3218763,7.0964205
Friesack,"14662
",52.7395263,12.5782641
Friesoythe,"26169
",53.0206088,7.8592307
Fritzlar,"34560
",51.131196,9.2748504
Frohburg,"04654
",51.0567105,12.5576743
Fröndenberg/Ruhr,"58730
",51.4739253,7.765505
Fulda,"36037, 36039, 36041, 36043
",50.5542328,9.6770448
Fürstenau,"49584
",52.5167872,7.6749583
Fürstenberg/Havel,"16798
",53.1844661,13.1482276
Fürstenfeldbruck,"82256
",48.1813797,11.2382125
Fürstenwalde/Spree,"15517
",52.3580209,14.064985
Fürth,"90762–90768
",49.4772475,10.9893626
Furth im Wald,"93437
",49.3081639,12.8452826
Furtwangen im Schwarzwald,"78120
",48.0512198,8.2073776
Füssen,"87629
",47.5675998,10.6993217
Gadebusch,"19205
",53.70187,11.1177362
Gaggenau,"76571
",48.8030291,8.3201799
Gaildorf,"74405
",49.0002603,9.7698525
Gammertingen,"72501
",48.2493445,9.2157336
Garbsen,"30823, 30826, 30827
",52.4276606,9.6005102
Garching bei München,"85748
",48.2513878,11.6509662
Gardelegen,"39638, 39649
",52.5266697,11.3929784
Garding,"25836
",54.3295733,8.7793889
Gartz (Oder),"16307
",53.208577,14.3914352
Garz/Rügen,"18574
",54.3195842,13.3516021
Gau-Algesheim,"55435
",49.9580426,8.0130518
Gebesee,"99189
",51.1167,10.9333
Gedern,"63688
",50.4051,9.2135
Geesthacht,"21502
",53.4374683,10.3678235
Geestland,"27607, 27624
",53.6291019,8.771899546032046
Gefell,"07926
",50.4442406,11.8409686
Gefrees,"95482, 95236
",50.0958031,11.7402417
Gehrden,"30989
",52.313508,9.6008438
Geilenkirchen,"52511
",50.963605,6.1199802
Geisa,"36419
",50.7144688,9.9498496
Geiselhöring,"94333
",48.8258853,12.3926046
Geisenfeld,"85290
",48.683404,11.6124731
Geisenheim,"65366,65385 (Am Rüdesheimer Hafen)Vorlage:Infobox Gemeinde in Deutschland/Wartung/PLZ enthält Text
",49.9863945,7.96852
Geisingen,"78187
",47.922968,8.6491814
Geislingen,"72351
",48.2886289,8.8135495
Geislingen an der Steige,"73312
",48.6218033,9.8372796
Geithain,"04643
",51.0651044,12.679050893791745
Geldern,"47608
",51.5169736,6.3228189
Gelnhausen,"63571, 63589
",50.2028622,9.190486
Gelsenkirchen,"45879–45899
",51.5110321,7.0960124
Gemünden am Main,"97737
",50.0557181,9.6910162
Gemünden (Wohra),"35285
",50.9768868,8.9686345
Gengenbach,"77723
",48.4035425,8.0153059
Genthin,"39291 (Ringelsdorf, Schopsdorf),39307 (Genthin, Gladau, Mützel, Paplitz, Parchen, Tucheim)Vorlage:Infobox Gemeinde in Deutschland/Wartung/PLZ enthält Text
",52.4063738,12.1561742
Georgsmarienhütte,"49124
",52.2,8.05
Gera,"07545–07557
",50.8772301,12.0796208
Gerabronn,"74582, 74585
",49.2498124,9.9229743
Gerbstedt,"06347
",51.6186924,11.6366979
Geretsried,"82538
",47.8646925,11.479351
Geringswalde,"09326
",51.0760493,12.9048523
Gerlingen,"70839
",48.7983947,9.0624386
Germering,"82110
",48.1340035,11.3657306
Germersheim,"76726
",49.2222749,8.36659
Gernsbach,"76593
",48.7636394,8.3379924
Gernsheim,"64579
",49.7466,8.5112
Gerolstein,"54568
",50.2234404,6.6618586
Gerolzhofen,"97447
",49.9003568,10.3487749
Gersfeld (Rhön),"36129
",50.4497667,9.8943709
Gersthofen,"86368
",48.4248151,10.8778564
Gescher,"48712
",51.956874,7.0038803
Geseke,"59590
",51.6395322,8.512578
Gevelsberg,"58285
",51.3207417,7.3404792
Geyer,"09468
",50.623596,12.9249831
Giengen an der Brenz,"89537, 89522
",48.624521,10.243032
Gießen,"35390, 35392, 35394, 35396, 35398
",50.5862066,8.6742306
Gifhorn,"38518
",52.57806125,10.661344801415442
Ginsheim-Gustavsburg,"65462
",49.9845346,8.3254964
Gladbeck,"45964, 45966, 45968
",51.5718665,6.9877343
Gladenbach,"35075
",50.7692091,8.5812577
Glashütte,"01768
",50.8502095,13.7766767
Glauchau,"08371
",50.8199031,12.5397873
Glinde,"21509
",53.5411468,10.213583
Glücksburg (Ostsee),"24960
",54.84544485,9.562033402693672
Glückstadt,"25348
",53.787927,9.4238157
Gnoien,"17179
",53.9703915,12.7054032
Goch,"47574
",51.6755765,6.1593045
Goldberg,"19399
",53.5902655,12.0883101
Goldkronach,"95497
",50.0098461,11.6870938
Golßen,"15938
",51.9709352,13.6045078
Gommern,"39175 (Menz, Wahlitz),39245 (Dannigkow, Gommern),39264 (Dornburg, Lübs, Prödel),39279 (Ladeburg, Leitzkau),39291 (Karith, Nedlitz, Vehlitz)Vorlage:Infobox Gemeinde in Deutschland/Wartung/PLZ enthält Text
",52.0739555,11.8307231
Göppingen,"73033, 73035, 73037, 73116
",48.7031377,9.6541116
Görlitz,"02826–02828
",51.1563185,14.991018
Goslar,"38640, 38642, 38644, 38690
",51.9059936,10.4266284
Gößnitz,"04639
",50.889108,12.431532
Gotha,"99867
",50.9494849,10.7014435
Göttingen,"37001–37099
",51.5328328,9.9351811
Grabow,"19300
",53.2789153,11.5625238
Grafenau,"94481, 94568
",48.8576397,13.3938284
Gräfenberg,"91322
",49.6460001,11.2483425
Gräfenhainichen,"06772, 06773
",51.7309112,12.4588675
Gräfenthal,"98743
",50.525919,11.3058452
Grafenwöhr,"92655
",49.7200881,11.9066277
Grafing bei München,"85567
",48.0502855,11.9661337
Gransee,"16775
",53.0072783,13.1588685
Grebenau,"36323
",50.7302717,9.4369168
Grebenstein,"34393
",51.4474181,9.414293
Greding,"91171
",49.045989,11.3525826
Greifswald,"17489, 17491, 17493
",54.095791,13.3815238
Greiz,"07973
",50.7783814,12.0763533
Greußen,"99718
",51.2283518,10.9481696
Greven,"48268
",52.0929254,7.6120326
Grevenbroich,"41515, 41516, 41517
",51.0905783,6.5835365
Grevesmühlen,"23936
",53.8644705,11.1898839
Griesheim,"64347
",49.8615899,8.5762043
Grimma,"04668
",51.2383379,12.7287511
Grimmen,"18507
",54.1127844,13.0429152
Gröditz,"01609
",51.4121605,13.4473168
Groitzsch,"04539
",51.15,12.2833
Gronau (Leine),"31028
",52.0834226,9.7821978
Gronau (Westf.),"48599
",52.2085731,7.0264443
Gröningen,"39397
",51.9363717,11.2166312
Großalmerode,"37247
",51.2440301,9.80537
Groß-Bieberau,"64401,64395 (Hippelsbach)Vorlage:Infobox Gemeinde in Deutschland/Wartung/PLZ enthält Text
",49.7902515,8.8161036
Großbottwar,"71723
",49.001316,9.2930138
Großbreitenbach,"98701
",50.5806039,11.004454
Großenhain,"01558
",51.2911845,13.5317153
Groß-Gerau,"64501–64521
",49.914,8.4657
Großräschen,"01983
",51.5883265,14.0123136
Großröhrsdorf,"01900
",51.1456848,14.0199103
Großschirma,"09603
",50.9664763,13.2784375
Groß-Umstadt,"64823
",49.86477,8.95669
Grünberg,"35305
",50.5913238,8.9603407
Grünhain-Beierfeld,"08344
",50.5689729,12.7955534
Grünsfeld,"97947
",49.6082782,9.7447803
Grünstadt,"67269
",49.5653661,8.1634571
Guben,"03172
",51.9503235,14.7153567
Gudensberg,"34281
",51.1879395,9.3673288
Güglingen,"74363
",49.0668087,8.9999838
Gummersbach,"51643, 51645, 51647
",51.0277658,7.5630545
Gundelfingen an der Donau,"89423
",48.552433,10.3675015
Gundelsheim,"74831
",49.2844,9.16194
Günzburg,"89312
",48.4539028,10.2785509
Gunzenhausen,"91710
",49.1147095,10.7545933
Güsten,"39439
",51.7947764,11.6078635
Güstrow,"18273
",53.7936523,12.1759661
Gütersloh,"33330–33335, 33311
",51.9063997,8.3782078
Gützkow,"17506
",53.9378689,13.4100305
Haan,"42781
",51.1954956,7.0085328
Hachenburg,"57627
",50.6627538,7.8253173
Hadamar,"65589
",50.4494908,8.048833
Hagen,"58089–58099, 58119, 58135
",51.3582945,7.473296
Hagenbach,"76767
",49.0196679,8.247413
Hagenow,"19230
",53.4305796,11.1904828
Haiger,"35708
",50.7420214,8.2039451
Haigerloch,"72401
",48.3675198,8.7985138
Hainichen,"09661
",50.9725862,13.1229747
Haiterbach,"72221
",48.5250249,8.6472766
Halberstadt,"38820, 38822, 38895Vorlage:Infobox Gemeinde in Deutschland/Wartung/PLZ enthält Text
",51.8953514,11.0520563
Haldensleben,"39340,39343 (Hundisburg, Süplingen),39345 (Gut Detzel, Hütten, Satuelle, Schloss Detzel, Uthmöden, Wedringen)Vorlage:Infobox Gemeinde in Deutschland/Wartung/PLZ enthält Text
",52.2911243,11.4132719
Halle (Saale),"06108–06132
",51.4825041,11.9705452
Halle (Westf.),"33790
",52.0603847,8.3615861
Hallenberg,"59969
",51.1096147,8.6201021
Hallstadt,"96103
",49.928801,10.8754637
Haltern am See,"45721
",51.7430516,7.187221
Halver,"58553
",51.1874423,7.4987312
Hamburg,"20095–21149,22041–22769,27499
",53.550341,10.000654
Hameln,"31785, 31787, 31789
",52.1039941,9.3561569
Hamm,"59063–59077
",51.6804093,7.815197
Hammelburg,"97762
",50.1159826,9.8932996
Hamminkeln,"46499
",51.7306922,6.590865
Hanau,"63450, 63452, 63454, 63456, 63457
",50.132881,8.9169797
Hannover,"30159–30179,30419–30669Vorlage:Infobox Gemeinde in Deutschland/Wartung/PLZ enthält Text
",52.3744779,9.7385532
Hann. Münden,"34346
",51.4161908,9.6550096
Harburg (Schwaben),"86655
",48.7856056,10.692743
Hardegsen,"37181
",51.6528043,9.8322034
Haren (Ems),"49733
",52.7905619,7.2400267
Harsewinkel,"33428
",51.9617153,8.2252425
Hartenstein,"08118
",50.6618358,12.6712469
Hartha,"04746
",51.0984539,12.9715576
Harzgerode,"06493
",51.6381169,11.1465703
Haselünne,"49740
",52.6718718,7.4830538
Haslach im Kinzigtal,"77716
",48.2769011,8.0871643
Haßfurt,"97437
",50.0318698,10.5065562
Hattersheim am Main,"65795
",50.056,8.4819
Hattingen,"45525, 45527, 45529
",51.4007175,7.1862486
Hatzfeld (Eder),"35116
",50.9847904,8.5630273
Hausach,"77756
",48.2836305,8.174972
Hauzenberg,"94051
",48.6551971,13.6276784
Havelberg,"39539
",52.8250425,12.0741929
Havelsee,"14778, 14798
",52.4913976,12.4595798
Hayingen,"72534
",48.2751679,9.4781135
Hechingen,"72379
",48.3525529,8.9642047
Hecklingen,"39444
",51.8485211,11.5345948
Heide,"25746
",54.1948456,9.0929015
Heideck,"91180
",49.1337637,11.124544
Heidelberg,"69115–69126
",49.4093582,8.694724
Heidenau,"01801–01809
",50.9735851,13.8753917
Heidenheim an der Brenz,"89518, 89520, 89522
",48.6767637,10.152923
Heilbad Heiligenstadt,"37308
",51.3756186,10.138224
Heilbronn,"74072–74081
",49.142291,9.218655
Heiligenhafen,"23774
",54.3717445,10.9809235
Heiligenhaus,"42579
",51.32658,6.9710401
Heilsbronn,"91560
",49.3378853,10.7887166
Heimbach,"52396
",49.6141458,7.2481879
Heimsheim,"71296
",48.8058986,8.8619207
Heinsberg,"52525
",51.0654268,6.0984461
Heitersheim,"79423
",47.8736185,7.6580337
Heldburg,"98663
",50.2808914,10.7448265
Helmbrechts,"95233
",50.2349797,11.7163126
Helmstedt,"38350, 38372Vorlage:Infobox Gemeinde in Deutschland/Wartung/PLZ enthält Text
",52.2277037,11.0104702
Hemau,"93155
",49.0517889,11.7824249
Hemer,"58675
",51.3854116,7.7661798
Hemmingen,"30966
",52.3212183,9.7454815
Hemmoor,"21745
",53.6886857,9.1595122
Hemsbach,"69502
",49.5919545,8.6460261
Hennef (Sieg),"53773
",50.7754417,7.2847945
Hennigsdorf,"16761
",52.6375777,13.2057511
Heppenheim (Bergstraße),"64646
",49.6416143,8.6333327
Herbolzheim,"79336
",48.2198805,7.7769882
Herborn,"35745
",50.6832181,8.3031361
Herbrechtingen,"89542
",48.6226932,10.1761696
Herbstein,"36358
",50.5608868,9.3804574
Herdecke,"58313
",51.4001119,7.4330062
Herdorf,"57562
",50.7788397,7.9514498
Herford,"32049, 32051, 32052
",52.1152245,8.6711118
Heringen/Helme,"99765
",51.46396755,10.895028413172586
Heringen (Werra),"36266
",50.8868593,9.9746798
Hermeskeil,"54411
",49.6554515,6.9481877
Hermsdorf,"07629
",50.897952,11.8567132
Herne,"44623–44629,44649–44653Vorlage:Infobox Gemeinde in Deutschland/Wartung/PLZ enthält Text
",51.5380394,7.219985
Herrenberg,"71083
",48.5956244,8.8671496
Herrieden,"91567
",49.2360696,10.4979141
Herrnhut,"02747 (Berthelsdorf, Großhennersdorf, Herrnhut, Rennersdorf, Strahwalde)Vorlage:Infobox Gemeinde in Deutschland/Wartung/PLZ enthält Text
",51.000640950000005,14.716045782436524
Hersbruck,"91217
",49.5085843,11.4285065
Herten,"45699, 45701
",51.5942009,7.1368071
Herzberg am Harz,"37412, 37434
",51.6565219,10.3428415
Herzberg (Elster),"04916
",51.6924078,13.2358585
Herzogenaurach,"91074
",49.5710376,10.8815262
Herzogenrath,"52134
",50.8684545,6.0950514
Hessisch Lichtenau,"37230–37235
",51.1927404,9.7517183
Hessisch Oldendorf,"31840, 31833
",52.1698382,9.2506531
Hettingen,"72513, 72419, 72501
",48.2169103,9.2317078
Hettstedt,"06333
",51.6500047,11.4999986
Heubach,"73540
",48.7913507,9.9363623
Heusenstamm,"63150
",50.0537652,8.8236013
Hilchenbach,"57271
",50.9935863,8.107365
Hildburghausen,"98646
",50.4266327,10.7300263
Hilden,"40721, 40723, 40724
",51.1674417,6.9307271
Hildesheim,"31134–31141
",52.1521636,9.9513046
Hillesheim,"54576
",50.2916705,6.6680009
Hilpoltstein,"91161
",49.188964,11.1892243
Hirschau,"92242
",49.5445912,11.9464314
Hirschberg,"07927
",50.3781716,7.9223613
Hirschhorn (Neckar),"69434,64757 (Unter-Hainbrunn),69412 (Igelsbach)Vorlage:Infobox Gemeinde in Deutschland/Wartung/PLZ enthält Text
",49.461,8.8974
Hitzacker (Elbe),"29456
",53.1512116,11.0440938
Hochheim am Main,"65239
",50.0277,8.3587
Höchstadt an der Aisch,"91315
",49.7046173,10.8077534
Höchstädt an der Donau,"89420
",48.6114313,10.5670984
Hockenheim,"68766
",49.3188892,8.5475467
Hof,"95028, 95030, 95032
",50.3219015,11.9178807
Hofgeismar,"34369
",51.4972178,9.4280731
Hofheim am Taunus,"65719
",50.09494,8.42285
Hofheim in Unterfranken,"97461
",50.1366915,10.5231727
Hohenberg an der Eger,"95691
",50.0970494,12.2232841
Hohenleuben,"07958
",50.7103628,12.0519044
Hohenmölsen,"06679
",51.1573976,12.0981844
Hohen Neuendorf,"16540, 16556, 16562
",52.6732755,13.2807255
Hohenstein-Ernstthal,"09337
",50.8021139,12.7072907
Hohnstein,"01848
",50.9797836,14.1111221
Höhr-Grenzhausen,"56203
",50.438904,7.6703879
Hollfeld,"96142
",49.9389862,11.2918916
Holzgerlingen,"71088
",48.6392119,9.0115732
Holzminden,"37603
",51.8989989,9.5741099
Homberg (Efze),"34576
",51.0117227,9.4048406
Homberg (Ohm),"35315
",50.7274933,8.997847
Homburg,"66424, 66421 (Universitätsklinikum des Saarlandes)Vorlage:Infobox Gemeinde in Deutschland/Wartung/PLZ enthält Text
",49.3181673,7.3340336
Horb am Neckar,"72160
",48.4447943,8.6914794
Hornbach,"66500
",49.1875373,7.3687796
Horn-Bad Meinberg,"32805
",51.8801277,8.9731695
Hornberg,"78132
",48.2128411,8.2316356
Hörstel,"48477
",52.2973664,7.5862462
Horstmar,"48612
",52.0811414,7.3034425
Höxter,"37671
",51.7938902,9.348855
Hoya,"27318
",52.8065,9.13957
Hoyerswerda,"02977
",51.4333103,14.250083
Hückelhoven,"41836
",51.0552368,6.2247322
Hückeswagen,"42499
",51.1504872,7.3413999
Hüfingen,"78183
",47.9269484,8.4892187
Hünfeld,"36088
",50.65546,9.7764627
Hungen,"35410
",50.4696168,8.9171014
Hürth,"50354
",50.8807379,6.876568
Husum,"25813
",54.4853638,9.0538156
Ibbenbüren,"49477, 49479
",52.2774772,7.7151417
Ichenhausen,"89335
",48.3712746,10.3071082
Idar-Oberstein,"55743
",49.7107134,7.3136563
Idstein,"65510
",50.2212764,8.269554
Illertissen,"89257
",48.221764,10.1058969
Ilmenau,"98693, 98694
",50.6867695,10.9142385
Ilsenburg (Harz),"38871
",51.8667349,10.6831785
Ilshofen,"74532
",49.170072,9.9186069
Immenhausen,"34376
",51.4194918,9.5093272
Immenstadt im Allgäu,"87509
",47.561006,10.2201663
Ingelfingen,"74653
",49.3014449,9.6513353
Ingelheim am Rhein,"55216, 55218, 55262, 55263
",49.9752749,8.0547274
Ingolstadt,"85049–85057
",48.7630165,11.4250395
Iphofen,"97346
",49.7042096,10.2607784
Iserlohn,"58636–58644
",51.3746778,7.6999713
Isny im Allgäu,"88316
",47.6925666,10.039203
Isselburg,"46419
",51.8344194,6.4614134
Itzehoe,"25524
",53.919448,9.5172441
Jarmen,"17126
",53.9221033,13.3374416
Jena,"07743–07751
",50.9281717,11.5879359
Jerichow,"39307 (Brettin, Demsin, Kade, Karow, Klitsche, Roßdorf, Schlagenthin, Zabakuck),39319 (Jerichow, Nielebock, Redekin, Wulkow)Vorlage:Infobox Gemeinde in Deutschland/Wartung/PLZ enthält Text
",52.4976362,12.0257528
Jessen (Elster),"06917
",51.7931158,12.9590741
Jever,"26441
",53.5736426,7.9020696
Joachimsthal,"16247
",52.9770643,13.7453282
Johanngeorgenstadt,"08349
",50.4310567,12.7146849
Jöhstadt,"09477
",50.5142346,13.0900195
Jüchen,"41363
",51.1017138,6.5036893
Jülich,"52428
",50.9220931,6.3611015
Jüterbog,"14913
",51.9916493,13.0801128
Kaarst,"41564
",51.226675,6.6193924
Kahla,"07768
",50.8025663,11.5877025
Kaisersesch,"56759
",50.2307994,7.1404855
Kaiserslautern,"67655, 67657, 67659, 67661, 67663
",49.4432174,7.7689951
Kalbe (Milde),"39624
",52.68984275,11.35214931247642
Kalkar,"47546
",51.7388793,6.2927546
Kaltenkirchen,"24568
",53.8371714,9.9614889
Kaltennordheim,"36452
",50.6262716,10.1582897
Kamen,"59174
",51.5918019,7.6616804
Kamenz,"01917
",51.270139,14.0948628
Kamp-Lintfort,"47475
",51.5017981,6.547923
Kandel,"76870
",49.0809754,8.1970699
Kandern,"79400
",47.714697,7.6610865
Kappeln,"24376, 24404Vorlage:Infobox Gemeinde in Deutschland/Wartung/PLZ enthält Text
",54.6641769,9.9317595
Karben,"61184
",50.2313417,8.7717673
Karlsruhe,"76131–76229
",49.0068705,8.4034195
Karlstadt,"97753
",49.9616823,9.7655121
Kassel,"34117–34134, 34355Vorlage:Infobox Gemeinde in Deutschland/Wartung/PLZ enthält Text
",51.3154546,9.4924096
Kastellaun,"56288
",50.0713361,7.4422325
Katzenelnbogen,"56368
",50.2676224,7.9768379
Kaub,"56349
",50.0880512,7.7620909
Kaufbeuren,"87600
",47.8803788,10.622246
Kehl,"77694
",48.5728929,7.8109768
Kelbra (Kyffhäuser),"06537
",51.4342602,11.0395838
Kelheim,"93309
",48.9187285,11.8727886
Kelkheim (Taunus),"65779
",50.14442905,8.443913314102563
Kellinghusen,"25548
",53.949549,9.7188996
Kelsterbach,"65451
",50.065151,8.5296632
Kemberg,"06901
",51.7735933,12.6358905
Kemnath,"95478
",49.8581156,11.9355154
Kempen,"47906
",51.3642126,6.4195011
Kempten (Allgäu),"87435, 87437, 87439
",47.7267063,10.3168835
Kenzingen,"79341
",48.1918267,7.7689368
Kerpen,"50169, 50170, 50171
",50.3097609,6.7293316
Ketzin/Havel,"14669
",52.4769264,12.8443972
Kevelaer,"47623–47627
",51.5802996,6.2456273
Kiel,"24103–24118,24143–24149, 24159Vorlage:Infobox Gemeinde in Deutschland/Wartung/PLZ enthält Text
",54.3227085,10.135555
Kierspe,"58566
",51.1278531,7.6006513
Kirchberg,"08107
",49.9431629,7.4083878
Kirchberg an der Jagst,"74592
",49.2044838,9.9817296
Kirchberg (Hunsrück),"55481
",49.9330554,7.354767906096335
Kirchen (Sieg),"57548
",50.8081255,7.87987
Kirchenlamitz,"95158, 95100
",50.1515445,11.9502926
Kirchhain,"35274
",50.826987700000004,8.927593310210382
Kirchheimbolanden,"67292
",49.6644306,8.0107385
Kirchheim unter Teck,"73230
",48.6480545,9.4510227
Kirn,"55606
",49.7861037,7.4584035
Kirtorf,"36320,36326 (Dammeshof, Dammesmühle)Vorlage:Infobox Gemeinde in Deutschland/Wartung/PLZ enthält Text
",50.7683479,9.1061031
Kitzingen,"97318
",49.7339751,10.161216
Kitzscher,"04567
",51.1645029,12.5529858
Kleve,"47533
",51.79869275,6.1449935248722
Klingenberg am Main,"63911
",49.7824102,9.1827765
Klingenthal,"08248, 08267Vorlage:Infobox Gemeinde in Deutschland/Wartung/PLZ enthält Text
",50.3581046,12.4678923
Klötze,"38486
",52.6276465,11.165058
Klütz,"23948,23946 (Tarnewitzerhagen)Vorlage:Infobox Gemeinde in Deutschland/Wartung/PLZ enthält Text
",53.9668696,11.1656678
Knittlingen,"75438
",49.0239269,8.7579461
Koblenz,"56068–56077
",50.3533278,7.5943951
Kolbermoor,"83059
",47.8556623,12.0595795
Kölleda,"99625
",51.1880844,11.2443392
Köln,"50667–51149
",50.938361,6.959974
Königsberg in Bayern,"97486
",50.0818105,10.570198
Königsbrück,"01936
",51.2637467,13.9028337
Königsbrunn,"86343
",48.2679546,10.8883816
Königsee,"07426
",50.669550650000005,11.106074272698176
Königslutter am Elm,"38154
",52.2499307,10.8171691
Königstein im Taunus,"61462
",50.1818833,8.465271
Königstein (Sächsische Schweiz),"01824
",50.9064119,14.0814102
Königswinter,"53639
",50.6739719,7.1930989
Königs Wusterhausen,"15711–15713
",52.2994511,13.6244389
Könnern,"06420
",51.6706514,11.7713656
Konstanz,"78462, 78464, 78465, 78467
",47.659216,9.1750718
Konz,"54329
",49.6984949,6.5736454
Korbach,"34497, 34513
",51.2559045,8.8426963
Korntal-Münchingen,"70825
",48.8432607,9.1068611
Kornwestheim,"70806, 71638
",48.8611498,9.1873875
Korschenbroich,"41352
",51.1902651,6.5143539
Köthen (Anhalt),"06366, 06369, 06388Vorlage:Infobox Gemeinde in Deutschland/Wartung/PLZ enthält Text
",51.751033,11.973698
Kraichtal,"76703
",49.1319246,8.7375729
Krakow am See,"18292
",53.6499594,12.266794
Kranichfeld,"99446–99448
",50.8526515,11.1998899
Krautheim,"74238
",49.387467,9.6356995
Krefeld,"47798–47809, 47829, 47839
",51.3331205,6.5623343
Kremmen,"16766
",52.7604941,13.0294822
Krempe,"25361
",53.8360392,9.489977
Kreuztal,"57223
",50.9598627,7.9896202
Kronach,"96317
",50.2397846,11.3277669
Kronberg im Taunus,"61476
",50.19075865,8.518299311240092
Kröpelin,"18236
",54.0720121,11.7936085
Kroppenstedt,"39397
",51.9416648,11.3085172
Krumbach (Schwaben),"86381
",48.2433959,10.3634009
Kühlungsborn,"18225
",54.1483764,11.7441876
Kulmbach,"95326
",50.1008448,11.4479149
Külsheim,"97900
",49.6692886,9.5216706
Künzelsau,"74653
",49.2803765,9.6901512
Kupferberg,"95362
",50.1391777,11.5766311
Kuppenheim,"76456
",48.8272323,8.2545743
Kusel,"66869
",49.5399844,7.4008479
Kyllburg,"54655
",50.041096,6.5922224
Kyritz,"16866
",52.9430648,12.3966896
Laage,"18299
",53.9258806,12.3501625
Laatzen,"30880
",52.3077423,9.8132829
Ladenburg,"68526
",49.4724349,8.6106455
Lage,"32791
",51.9914084,8.7919583
Lahnstein,"56112
",50.3090305,7.6044602
Lahr/Schwarzwald,"77933
",48.338896,7.8710825
Laichingen,"89150
",48.4896773,9.6861474
Lambrecht (Pfalz),"67466
",49.3693393,7.977218595021119
Lampertheim,"68623
",49.6239449,8.4093474
Landau an der Isar,"94405
",48.6728826,12.6941291
Landau in der Pfalz,"76829,76857 (Taubensuhl)Vorlage:Infobox Gemeinde in Deutschland/Wartung/PLZ enthält Text
",49.1982825,8.1123441
Landsberg am Lech,"86899, 86932
",48.0514973,10.8737728
Landsberg,"06188
",48.0514973,10.8737728
Landshut,"84028–84036
",48.536217,12.1516551
Landstuhl,"66849
",49.4143311,7.5722301
Langelsheim,"38685, 38729 (Lutter)Vorlage:Infobox Gemeinde in Deutschland/Wartung/PLZ enthält Text
",51.9356917,10.3296997
Langen,"63225
",49.9927036,8.6671682
Langenau,"89129
",48.4975016,10.1222024
Langenburg,"74595
",49.2531928,9.8477788
Langenfeld (Rheinland),"40764
",51.1008952,6.9459377
Langenhagen,"30851, 30853, 30855, 30669Vorlage:Infobox Gemeinde in Deutschland/Wartung/PLZ enthält Text
",52.443118,9.738994
Langenselbold,"63505
",50.1780857,9.0433074
Langenzenn,"90579
",49.4950727,10.7937902
Lassan,"17440
",53.9486928,13.8490767
Laubach,"35321
",50.0557179,7.5099389
Laucha an der Unstrut,"06636
",51.2233104,11.682231
Lauchhammer,"01979
",51.4977774,13.7400618
Lauchheim,"73466
",48.8736283,10.2487381
Lauda-Königshofen,"97922
",49.5577854,9.7190669
Lauenburg/Elbe,"21481
",53.3789803,10.5513889
Lauf an der Pegnitz,"91207
",49.5118126,11.2813381
Laufen,"83410
",47.9354122,12.930309
Laufenburg (Baden),"79725
",47.5671976,8.0599414
Lauffen am Neckar,"74348
",49.0753911,9.154451
Lauingen (Donau),"89415
",48.5710836,10.4305438
Laupheim,"88471
",48.230514,9.8771587
Lauscha,"98724
",50.4750346,11.1610862
Lauta,"02991
",51.4550406,14.0950367
Lauter-Bernsbach,"08315
",50.56146435,12.728133990456882
Lauterbach,"36341
",50.6368507,9.3968633
Lauterecken,"67742
",49.6500535,7.5918264
Lauterstein,"73111
",48.72340885,9.922582983813728
Lebach,"66822
",49.4132377,6.9091348
Lebus,"15326
",52.4271025,14.5338189
Leer (Ostfriesland),"26789
",53.2502087,7.4563035
Lehesten,"07349
",50.98187,11.5795506
Lehrte,"31275
",52.3749334,9.9748557
Leichlingen (Rheinland),"42799
",51.10145195,7.019331336187207
Leimen,"69181
",49.3491417,8.6909951
Leinefelde-Worbis,"37327, 37339
",51.41492555000001,10.319447163981811
Leinfelden-Echterdingen,"70771, 71144
",48.6901796,9.1525725
Leingarten,"74211
",49.1434266,9.1240565
Leipheim,"89340
",48.4487175,10.2213539
Leipzig,"04103–04357
",51.3406321,12.3747329
Leisnig,"04703
",51.16005,12.9265979
Lemgo,"32657
",52.0280674,8.9012894
Lengenfeld,"08485
",50.5694023,12.3652544
Lengerich,"49525
",52.1887731,7.8508691
Lennestadt,"57368
",51.1245718,8.0568953
Lenzen (Elbe),"19309
",53.0908005,11.4748618
Leonberg,"71229
",48.8012983,9.0150026
Leun,"35638
",50.5501919,8.3572732
Leuna,"06237
",51.3233638,12.0195081
Leutenberg,"07338
",50.5637156,11.456433
Leutershausen,"91578
",49.2992825,10.4117748
Leutkirch im Allgäu,"88299
",47.8266137,10.0228027
Leverkusen,"51371–51381
",51.0324743,6.9881194
Lich,"35423
",50.5201683,8.8165535
Lichtenau,"77839
",49.2805135,10.6836351
Lichtenau,"33162–33165
",49.2805135,10.6836351
Lichtenberg,"95192
",52.5321606,13.5118927
Lichtenfels,"96215
",50.14568,11.06382
Lichtenfels,"35104
",50.14568,11.06382
Lichtenstein/Sa.,"09350
",50.7556404,12.6345621
Liebenau,"34396
",51.4961951,9.2827972
Liebenwalde,"16559
",52.8726482,13.3943575
Lieberose,"15868
",51.9865536,14.2996945
Liebstadt,"01825
",50.8634629,13.8570413
Limbach-Oberfrohna,"09212
",50.8608138,12.7545462
Limburg an der Lahn,"65549–65556
",50.3876305,8.0636197
Lindau (Bodensee),"88131
",47.550753,9.6926624
Linden,"35440
",50.6019526,7.8504832
Lindenberg im Allgäu,"88161
",47.6015641,9.8863905
Lindenfels,"64678,64658 (Faustenbach)Vorlage:Infobox Gemeinde in Deutschland/Wartung/PLZ enthält Text
",49.7051422,8.774326379503584
Lindow (Mark),"16835
",52.9744071,12.9872378
Lingen (Ems),"49808, 49809, 49811
",52.5224659,7.316584
Linnich,"52441
",50.9806294,6.2676208
Linz am Rhein,"53545
",50.5662481,7.2812557
Lippstadt,"59555–59558
",51.6747074,8.347194
Löbau,"02708
",51.0947288,14.6692423
Löffingen,"79843
",47.8839004,8.3446627
Lohmar,"53797
",50.8402243,7.2127276
Lohne (Oldenburg),"49393
",52.665257,8.2363523
Löhne,"32584
",52.1990346,8.7141587
Lohr am Main,"97816
",49.9954978,9.5733619
Loitz,"17121
",53.96913,13.1285573
Lollar,"35457
",50.6488974,8.7064931
Lommatzsch,"01623
",51.1952586,13.3111561
Löningen,"49624
",52.7363493,7.7570655
Lorch,"73547
",48.7982424,9.6898657
Lorch,"65391
",48.7982424,9.6898657
Lörrach,"79539–79541
",47.6120896,7.6607218
Lorsch,"64653
",49.6546967,8.5682813
Lößnitz,"08294
",50.6210947,12.730753
Löwenstein,"74245
",49.0953123,9.3809489
Lübbecke,"32312
",52.3027209,8.6183054
Lübben (Spreewald),"15907
",51.9418987,13.8963805
Lübbenau/Spreewald,"03222
",51.8680114,13.9689477
Lübeck,"23552–23570, 23627, 23628Vorlage:Infobox Gemeinde in Deutschland/Wartung/PLZ enthält Text
",53.866444,10.684738
Lübtheen,"19249
",53.3023864,11.0842837
Lübz,"19386
",53.4615326,12.0293514
Lüchow (Wendland),"29439
",52.954895199999996,11.087927706829081
Lucka,"04613
",51.0951,12.3353
Luckau,"15926
",51.8524163,13.7150055
Luckenwalde,"14943
",52.0902045,13.1741882
Lüdenscheid,"58507–58515
",51.218137,7.6396975
Lüdinghausen,"59348
",51.7717757,7.444639
Ludwigsburg,"71634–71642, 71672
",48.8953937,9.1895147
Ludwigsfelde,"14974
",52.3016096,13.2610163
Ludwigshafen am Rhein,"67059–67071
",49.4704113,8.4381568
Ludwigslust,"19288
",53.3300229,11.4993644
Ludwigsstadt,"96337
",50.4842311,11.3895014
Lugau,"09385
",50.7579779,12.7520515
Lügde,"32676
",51.9599455,9.2471128
Lüneburg,"21335, 21337, 21339, 21391
",53.248706,10.407855
Lünen,"44532, 44534, 44536
",51.6142482,7.5228088
Lunzenau,"09328
",50.968023,12.7216131
Lütjenburg,"24321
",54.2928257,10.5905485
Lützen,"06679, 06686
",51.2585623,12.1459521
Lychen,"17279
",53.2083284,13.3164795
Magdala,"99441
",50.9068693,11.4465339
Magdeburg,"39104–39130
",52.1315889,11.6399609
Mahlberg,"77972
",48.2871478,7.8124221
Mainbernheim,"97350
",49.7087639,10.2177792
Mainburg,"84048
",48.640589,11.7820705
Maintal,"63477
",50.1438711,8.8371266
Mainz,"55116–55131
",50.0012314,8.2762513
Malchin,"17139
",53.7382631,12.7644198
Malchow,"17213
",53.4775641,12.4245172
Manderscheid,"54531
",50.10047,6.3463431
Mannheim,"68159–68309
",49.4892913,8.4673098
Mansfeld,"06343
",51.5929057,11.4529104
Marbach am Neckar,"71672, 71711
",48.9402085,9.256396
Marburg,"35037, 35039, 35041, 35043
",50.8090106,8.7704695
Marienberg,"09496
",50.6507279,13.163188
Marienmünster,"37696
",51.8282084,9.2389221
Markdorf,"88677
",47.7206084,9.3917257
Markgröningen,"71706
",48.9050626,9.0808114
Märkisch Buchholz,"15748
",52.110158,13.7628126
Markkleeberg,"04416
",51.2785751,12.3718819
Markneukirchen,"08258
",50.311883,12.3292151
Markranstädt,"04420
",51.3026177,12.2204644
Marktbreit,"97340
",49.6668574,10.144153
Marktheidenfeld,"97828
",49.8452797,9.6067197
Marktleuthen,"95168
",50.1279651,11.9945062
Marktoberdorf,"87616
",47.7750654,10.6170847
Marktredwitz,"95615
",50.0009915,12.0856433
Marktsteft,"97342
",49.6948093,10.1384713
Marl,"45768, 45770, 45772
",51.6485843,7.0829054
Marlow,"18337
",54.1556493,12.5725117
Marne,"25709
",53.9521162,9.0107437
Marsberg,"34431
",51.4602168,8.8552071
Maulbronn,"75433
",48.9986948,8.8038083
Maxhütte-Haidhof,"93142
",49.1987299,12.0959905
Mayen,"56727,56729 (Geisbüschhof, Wüsteratherhof)Vorlage:Infobox Gemeinde in Deutschland/Wartung/PLZ enthält Text
",50.3283544,7.2215134
Mechernich,"53894
",50.5909999,6.6525479
Meckenheim,"53340
",50.6256627,7.0215612
Medebach,"59964
",51.1974918,8.7044753
Meerane,"08393
",50.8427835,12.4581578
Meerbusch,"40667, 40668, 40670
",51.2652237,6.6760958
Meersburg,"88709
",47.6955538,9.2719656
Meinerzhagen,"58540
",51.1063495,7.6408956
Meiningen,"98617
",50.554732400000006,10.373504956892056
Meisenheim,"55590
",49.706647,7.6700779
Meißen,"01662
",51.1630871,13.4704939
Meldorf,"25704
",54.08988,9.070633
Melle,"49324, 49326, 49328
",52.200762,8.338667
Mellrichstadt,"97638
",50.4282218,10.3020932
Melsungen,"34212
",51.1425944,9.5833158
Memmingen,"87700
",47.9867696,10.181319
Menden (Sauerland),"58706, 58708, 58710
",51.43779,7.7953822
Mendig,"56743
",50.3720933,7.2812427
Mengen,"88512
",48.049796,9.3316096
Meppen,"49716
",52.6947452,7.2909824
Merkendorf,"91732
",49.2021031,10.7039589
Merseburg,"06217
",51.3564413,11.996148
Merzig,"66651–66663
",49.4427023,6.6374902
Meschede,"59872
",51.3436532,8.2859257
Meßkirch,"88605
",47.9939249,9.1122006
Meßstetten,"72469
",48.180597,8.961909
Mettmann,"40822
",51.2527778,6.9777778
Metzingen,"72555
",48.5397247,9.2831201
Meuselwitz,"04610
",51.0475,12.2975
Meyenburg,"16945
",53.3140131,12.2426273
Michelstadt,"64720,63925 (Vielbrunn-Brunnthal)Vorlage:Infobox Gemeinde in Deutschland/Wartung/PLZ enthält Text
",49.68841,9.05647
Miesbach,"83714
",47.790025,11.8335417
Miltenberg,"63897
",49.7017584,9.2559718
Mindelheim,"87719
",48.0464164,10.4882504
Minden,"32423, 32425, 32427, 32429
",52.2881045,8.9168852
Mirow,"17252
",53.2851568,12.847677
Mittenwalde,"15749
",52.2642238,13.5360563
Mitterteich,"95666
",49.9509605,12.2429771
Mittweida,"09648
",50.9854597,12.9810458
Möckern,"39279 (Hobeck, Loburg, Rosian, Schweinitz, Zeppernick),39291 (übrige Ortschaften)Vorlage:Infobox Gemeinde in Deutschland/Wartung/PLZ enthält Text
",52.1405163,11.9532769
Möckmühl,"74219
",49.3233013,9.3611411
Moers,"47441, 47443, 47445, 47447
",51.451283,6.62843
Mölln,"23879
",53.62892,10.6880174
Mönchengladbach,"41061–41239
",51.1947131,6.4353792
Monheim,"86653
",48.8423558,10.8562708
Monheim am Rhein,"40789
",51.0908881,6.8832264
Monschau,"52156
",50.5544687,6.2407954
Montabaur,"56410
",50.4362219,7.8302494
Moosburg an der Isar,"85368
",48.4667,11.9333
Mörfelden-Walldorf,"64546
",49.9923836,8.5622468
Moringen,"37186
",51.6982506,9.8691556
Mosbach,"74821
",49.3521085,9.1460205
Mössingen,"72116
",48.4073606,9.0646686
Mücheln (Geiseltal),"06249,06255 (Wünsch),06268 (Langeneichstädt, Oechlitz),06632 (Branderoda, Gröst)Vorlage:Infobox Gemeinde in Deutschland/Wartung/PLZ enthält Text
",51.3015933,11.8039044
Mügeln,"04769
",51.2335824,13.0181304
Mühlacker,"75417
",48.9487272,8.8492931
Mühlberg/Elbe,"04931 (Altenau, Fichtenberg, Mühlberg)04895 (Brottewitz, Koßdorf, Martinskirchen)Vorlage:Infobox Gemeinde in Deutschland/Wartung/PLZ enthält Text
",51.4344274,13.2172472
Mühldorf am Inn,"84453
",48.2405007,12.5250991
Mühlhausen/Thüringen,"99974, 99976, 99998
",51.2094255,10.4589044
Mühlheim am Main,"63165
",50.1080582,8.8467138
Mühlheim an der Donau,"78570
",48.0274923,8.889373
Mülheim an der Ruhr,"45468–45481
",51.4272925,6.8829192
Mülheim-Kärlich,"56218
",50.3868869,7.4975336
Müllheim im Markgräflerland,"79379
",47.8099613,7.6257276
Müllrose,"15299
",52.2468189,14.4181081
Münchberg,"95213
",50.1911369,11.7913908
Müncheberg,"15374
",52.5037484,14.1404688
München,"80331–81929, 85540[A 1]
",48.1371079,11.5753822
Münchenbernsdorf,"07589
",50.8206082,11.9330185
Munderkingen,"89597
",48.2358225,9.6441788
Münnerstadt,"97702
",50.2490439,10.1942632
Münsingen,"72525
",48.4128592,9.4947894
Munster,"29633
",51.9625101,7.6251879
Münster,"48143–48167
",51.9625101,7.6251879
Münstermaifeld,"56294,56754 (Pilligerheck)Vorlage:Infobox Gemeinde in Deutschland/Wartung/PLZ enthält Text
",50.2470805,7.3632746
Münzenberg,"35516
",50.4518351,8.7759774
Murrhardt,"71540
",48.9797657,9.5794661
Nabburg,"92507
",49.4509736,12.1790102
Nagold,"72202
",48.5512399,8.7234942
Naila,"95119
",50.3296301,11.7084131
Nassau,"56377
",50.3148917,7.8000899
Nastätten,"56355
",50.199081,7.858179
Nauen,"14641
",52.6061065,12.8772599
Naumburg,"34311
",51.1525648,11.8099186
Naumburg (Saale),"06618, 06628
",51.1525648,11.8099186
Naunhof,"04683
",51.2779508,12.5882898
Nebra (Unstrut),"06642
",51.2873083,11.5787877
Neckarbischofsheim,"74924
",49.293192,8.9617359
Neckargemünd,"69151
",49.3954054,8.7965893
Neckarsteinach,"69239
",49.4221,8.8396
Neckarsulm,"74172
",49.191133,9.2248391
Neresheim,"73450, 73441
",48.7539485,10.3343747
Netphen,"57250
",50.9125904,8.1026183
Nettetal,"41334
",51.3155092,6.2714171
Netzschkau,"08491
",50.6133033,12.2487152
Neu-Anspach,"61267
",50.3001938,8.5071011
Neubrandenburg,"17033, 17034, 17036
",53.5574458,13.2602781
Neubukow,"18233
",54.0314438,11.6721265
Neubulach,"75387, 75385
",48.6617473,8.6958614
Neuburg an der Donau,"86633
",48.7371951,11.1795268
Neudenau,"74861
",49.2940857,9.2731888
Neuenbürg,"75305
",48.8491256,8.587156
Neuenburg am Rhein,"79395
",47.8155916,7.5627871
Neuenhaus,"49828
",52.5,6.96667
Neuenrade,"58809
",51.2831254,7.7830374
Neuenstadt am Kocher,"74196
",49.2361584,9.3293362
Neuenstein,"74632
",49.2047713,9.5803049
Neuerburg,"54673
",50.0107307,6.2947705
Neuffen,"72639
",48.5545979,9.376547
Neuhaus am Rennweg,"98724
",50.49559875,11.074997698251595
Neu-Isenburg,"63263
",50.0464196,8.6717748
Neukalen,"17154
",53.8228766,12.7918145
Neukirchen,"34626
",54.8687122,8.7339915
Neukirchen-Vluyn,"47506
",51.4413742,6.5467641
Neukloster,"23992
",53.8645385,11.6824343
Neumark,"99439
",51.079026,11.2441904
Neumarkt in der Oberpfalz,"92318
",49.279624,11.4594662
Neumarkt-Sankt Veit,"84494
",48.3607951,12.5083828
Neumünster,"24534, 24536, 24537, 24539
",54.0757442,9.9815377
Neunburg vorm Wald,"92431
",49.3487414,12.3819853
Neunkirchen,"66538–66540
",50.5456179,8.1025344
Neuötting,"84524
",48.2402896,12.685745
Neuruppin,"16816, 16818, 16827, 16833, 16835
",52.9243859,12.8092919
Neusalza-Spremberg,"02742
",51.0361787,14.5305378
Neusäß,"86356
",48.3928722,10.8354535
Neuss,"41460–41472
",51.1981778,6.6916476
Neustadt am Kulm,"95514
",49.8256936,11.835319
Neustadt am Rübenberge,"31535
",52.5055135,9.4635826
Neustadt an der Aisch,"91413
",49.5819105,10.6077372
Neustadt an der Donau,"93333
",48.8065177,11.7681452
Neustadt an der Orla,"07806
",50.7364311,11.7458512
Neustadt an der Waldnaab,"92660
",49.7314121,12.1732938
Neustadt an der Weinstraße,"67433, 67434, 67435
",49.3539802,8.1350021
Neustadt bei Coburg,"96465
",50.3283477,11.1226908
Neustadt (Dosse),"16845
",52.8550517,12.440522
Neustadt-Glewe,"19306
",53.393252,11.5753248
Neustadt (Hessen),"35279
",50.8515376,9.1173459
Neustadt in Holstein,"23730
",54.1029898,10.8186738
Neustadt in Sachsen,"01841–01844
",51.0249519,14.2140882
Neustrelitz,"17235
",53.3617163,13.0630004
Neutraubling,"93073
",48.9879681,12.1937046
Neu-Ulm,"89231, 89233
",48.3953342,10.0008532
Neuwied,"56564, 56566, 56567
",50.4302393,7.466302
Nidda,"63667
",50.4267,9.0286
Niddatal,"61194,61130 (Winnerhöfe)Vorlage:Infobox Gemeinde in Deutschland/Wartung/PLZ enthält Text
",50.2833,8.83333
Nidderau,"61130
",50.2290263,8.8762327
Nideggen,"52385
",50.6913559,6.482614
Niebüll,"25899
",54.7869088,8.8255846
Niedenstein,"34305
",51.2152682,9.3061335
Niederkassel,"53859
",50.8137102,7.0351942
Niedernhall,"74676
",49.2946494,9.6165589
Nieder-Olm,"55268
",49.9094108,8.2033406
Niederstetten,"97996, 97980
",49.4003232,9.9189607
Niederstotzingen,"89168
",48.5408791,10.2332512
Nieheim,"33039
",51.8039402,9.1112266
Niemegk,"14823
",52.0749361,12.6889448
Nienburg (Saale),"06429
",51.8371558,11.7675525
Nienburg/Weser,"31582
",52.6487602,9.257810517418042
Nierstein,"55283
",49.8710847,8.3365369
Niesky,"02906
",51.2921267,14.8250955
Nittenau,"93149
",49.1980429,12.2718828
Norden,"26506
",53.5942039,7.2067435
Nordenham,"26954
",53.4973636,8.4820227
Norderney,"26548
",53.71238565,7.23401978862588
Norderstedt,"22844, 22846, 22848, 22850, 22851
",53.7089898,9.9891914
Nordhausen,"99734
",51.5051574,10.7925317
Nordhorn,"48527, 48529, 48531
",52.4359731,7.0707659
Nördlingen,"86720
",48.8516578,10.4885873
Northeim,"37154
",51.76438235,9.858328873964005
Nortorf,"24589
",54.1684689,9.8559648
Nossen,"01683
",51.1542557,13.314546
Nottertal-Heilinger Höhen,"99994
",51.2317899,10.6535225
Nürnberg,"90402–90491
",49.453872,11.077298
Nürtingen,"72622
",48.6265854,9.3365463
Oberasbach,"90522
",49.4303112,10.967555
Oberderdingen,"75038
",49.0626654,8.8021324
Oberharz am Brocken,"38875 (Elbingerode, Elend, Königshütte, Sorge, Tanne),38877 (Benneckenstein),38889 (Rübeland),38899 (Hasselfelde, Stiege, Trautenstein)Vorlage:Infobox Gemeinde in Deutschland/Wartung/PLZ enthält Text
",51.7035919,10.786511
Oberhausen,"46045, 46047, 46049,46117, 46119,46145, 46147, 46149Vorlage:Infobox Gemeinde in Deutschland/Wartung/PLZ enthält Text
",51.4696137,6.8514435
Oberhof,"98559
",50.7067756,10.7257435
Oberkirch,"77704
",48.5307122,8.0783998
Oberkochen,"73447
",48.7855073,10.1106691
Oberlungwitz,"09353
",50.7894372,12.7343596
Obermoschel,"67823
",49.7268361,7.7719699
Obernburg am Main,"63785
",49.842229,9.1480461
Oberndorf am Neckar,"78727
",48.2908613,8.5711222
Obernkirchen,"31683
",52.270117,9.1286948
Ober-Ramstadt,"64372
",49.8152,8.7548
Oberriexingen,"71739
",48.9274282,9.0292153
Obertshausen,"63179
",50.0731304,8.8732839
Oberursel (Taunus),"61440
",50.2005518,8.580452
Oberviechtach,"92526
",49.4602721,12.4189759
Oberwesel,"55430
",50.1075,7.7266193
Oberwiesenthal,"09484
",50.435552200000004,12.948936691898684
Oberzent,"64760
",49.5509448,8.9860959
Ochsenfurt,"97199
",49.6660102,10.0650833
Ochsenhausen,"88416
",48.0711222,9.9512104
Ochtrup,"48607
",52.2102308,7.188806
Oderberg,"16248
",52.8663385,14.0451652
Oebisfelde-Weferlingen,"39343 (Schwanefeld),39356 (Döhren u. a.),39359 (Bösdorf u. a.),39646 (Oebisfelde)siehe „Stadtgliederung“Vorlage:Infobox Gemeinde in Deutschland/Wartung/PLZ enthält Text
",52.3678102,11.1099786
Oederan,"09569
",50.8614612,13.1694372
Oelde,"59302
",51.8260823,8.1453352
Oelsnitz/Erzgeb.,"09376
",50.7144724,12.7048401
Oelsnitz/Vogtl.,"08606
",50.4118935,12.1568975
Oer-Erkenschwick,"45739
",51.6398512,7.2605914
Oerlinghausen,"33813
",51.949229450000004,8.673579012576445
Oestrich-Winkel,"65375
",50.0071863,8.0167585
Oettingen in Bayern,"86732
",48.9524578,10.6036824
Offenbach am Main,"63065–63075
",50.1055002,8.7610698
Offenburg,"77652, 77654, 77656
",48.4716556,7.944378
Ohrdruf,"99885
",50.8270085,10.7319499
Öhringen,"74613
",49.2005034,9.5024397
Olbernhau,"09526
",50.6564031,13.345242
Olching,"82140
",48.2036863,11.3311557
Oldenburg (Oldb),"26121–26135
",53.1389753,8.2146017
Oldenburg in Holstein,"23758
",54.2922574,10.8809805
Olfen,"59399
",51.7076224,7.3788047
Olpe,"57462
",51.0294497,7.8439105
Olsberg,"59939
",51.355148,8.4893388
Oppenau,"77728
",48.4751652,8.1646682
Oppenheim,"55276
",49.8527604,8.3548557
Oranienbaum-Wörlitz,"06785
",51.8243086,12.4136942
Oranienburg,"16515
",52.7529379,13.2457591
Orlamünde,"07768
",50.7752667,11.5200275
Ornbau,"91737
",49.1741629,10.6560093
Ortenberg,"63683
",50.35836,9.08399
Ortrand,"01990
",51.3761283,13.7576971
Oschatz,"04758
",51.297984,13.1082637
Oschersleben (Bode),"39387
",52.0266526,11.227781
Osnabrück,"49074–49090
",52.2719595,8.047635
Osterburg (Altmark),"39606
",52.7899044,11.7526038
Osterburken,"74706
",49.4305787,9.4273773
Osterfeld,"06721
",51.0806259,11.9305596
Osterhofen,"94486
",48.7019635,13.0201434
Osterholz-Scharmbeck,"27711
",53.2281763,8.7948239
Osterode am Harz,"37520
",51.72784,10.2508204
Osterwieck,"38835 (Berßel, Bühne, Deersheim, Hessen, Lüttgenrode, Osterode, Osterwieck, Rhoden, Schauen, Veltheim, Wülperode, Zilly),38836 (Dardesheim, Rohrsheim)Vorlage:Infobox Gemeinde in Deutschland/Wartung/PLZ enthält Text
",51.9689672,10.7135463
Ostfildern,"73760
",48.7178603,9.2630693
Ostheim vor der Rhön,"97645, 97647
",50.4602714,10.2330495
Osthofen,"67574
",49.7053458,8.32494
Östringen,"76684
",49.2192418,8.7097172
Ostritz,"02899
",51.014934,14.9327975
Otterberg,"67697
",49.5008961,7.7723649
Otterndorf,"21762
",53.808132,8.899715
Ottweiler,"66564
",49.4030447,7.1631469
Overath,"51491
",50.9320015,7.2839042
Owen,"73277
",48.5853896,9.4514899
Paderborn,"33098–33106
",51.7177044,8.752653
Papenburg,"26871
",53.0822606,7.3928398
Pappenheim,"91788
",48.934784,10.9744929
Parchim,"19370, 19374
",53.4258455,11.8475244
Parsberg,"92331
",49.1598787,11.7187658
Pasewalk,"17309
",53.5053677,13.9889049
Passau,"94032, 94034, 94036
",48.5748229,13.4609744
Pattensen,"30982
",52.2636263,9.7606529
Pausa-Mühltroff,"07919, 07952, 08539Vorlage:Infobox Gemeinde in Deutschland/Wartung/PLZ enthält Text
",50.5670447,11.9601733
Pegau,"04523
",51.1667169,12.255453
Pegnitz,"91257
",49.75649,11.540944
Peine,"31224, 31226, 31228
",52.3117289,10.251904013552373
Peitz,"03185
",51.8584667,14.4110395
Penig,"09322
",50.9331827,12.7075852
Penkun,"17328
",53.2977629,14.2413131
Penzberg,"82377
",47.7518502,11.3763014
Penzlin,"17217
",53.5055701,13.0843264
Perleberg,"19348
",53.0762716,11.8627933
Petershagen,"32469
",52.3756616,8.9668368
Pfaffenhofen an der Ilm,"85276
",48.5296743,11.5084954
Pfarrkirchen,"84347
",48.4320329,12.9386266
Pforzheim,"75172–75181
",48.8908846,8.7029532
Pfreimd,"92536
",49.4935987,12.1844834
Pfullendorf,"88630
",47.924349,9.2559822
Pfullingen,"72793
",48.4656748,9.2254982
Pfungstadt,"64319
",49.7943,8.5877
Philippsburg,"76661
",49.2367495,8.4546679
Pinneberg,"25421
",53.7278939,9.6979598
Pirmasens,"66953–66955
",49.1996961,7.6087847
Pirna,"01796
",50.9616923,13.9386643
Plattling,"94447
",48.7772562,12.8750665
Plau am See,"19395
",53.4600943,12.2631689
Plaue,"99338
",50.7776493,10.8980915
Plauen,"08523, 08525, 08527, 08529, 08541, 08547Vorlage:Infobox Gemeinde in Deutschland/Wartung/PLZ enthält Text
",50.4950632,12.1346523
Plettenberg,"58840
",51.2136798,7.8745627
Pleystein,"92714
",49.6459255,12.4099793
Plochingen,"73207
",48.711173,9.4184961
Plön,"24306
",54.24611515,10.413274327272728
Pockau-Lengefeld,"09509, 09514Vorlage:Infobox Gemeinde in Deutschland/Wartung/PLZ enthält Text Vorlage:Infobox Verwaltungseinheit in Deutschland/Wartung/PLZ falsch
",50.719074750000004,13.225666137250805
Pocking,"94060
",48.4015189,13.3107683
Pohlheim,"35415
",50.5165524,8.7345921
Polch,"56751
",50.298748,7.3129547
Porta Westfalica,"32457
",52.2394431,8.924762
Pößneck,"07381
",50.694735,11.5953247
Potsdam,"14467–14482
",52.4009309,13.0591397
Pottenstein,"91278
",49.7721841,11.4087415
Preetz,"24211
",54.2359233,10.2818352
Premnitz,"14727
",52.528092,12.3394514
Prenzlau,"17291
",53.3167,13.866575
Pressath,"92690
",49.7698203,11.9343043
Preußisch Oldendorf,"32361
",52.3040233,8.5016377
Prichsenstadt,"97357
",49.8181263,10.3513154
Pritzwalk,"16928
",53.1492896,12.1761903
Prüm,"54595
",50.2069481,6.4249003
Puchheim,"82178
",48.1704908,11.3526351
Pulheim,"50259
",50.9979888,6.8025409
Pulsnitz,"01896
",51.1825771,14.0139733
Putbus,"18581
",54.3535322,13.4749134
Putlitz,"16949
",53.2505941,12.0409827
Püttlingen,"66346
",49.287307,6.8827786
Quakenbrück,"49610
",52.6757127,7.9567402
Quedlinburg,"06484, 06485
",51.7855428,11.1519933
Querfurt,"06268,06642 (Zuckerfabrik Vitzenburg)Vorlage:Infobox Gemeinde in Deutschland/Wartung/PLZ enthält Text
",51.3785275,11.5974443
Quickborn,"25451
",54.0111091,9.2114907
Rabenau,"01734
",50.9631279,13.6418236
Radeberg,"01454
",51.1151413,13.9175257
Radebeul,"01445
",51.0999765,13.6767995
Radeburg,"01468–01471
",51.2149248,13.7241174
Radevormwald,"42477
",51.2029228,7.3571392
Radolfzell am Bodensee,"78315
",47.7372802,8.9702755
Raguhn-Jeßnitz,"06779, 06800
",51.7017806,12.3124486
Rahden,"32369
",52.4333,8.61667
Rain,"86641
",48.6901192,10.9153669
Ramstein-Miesenbach,"66877, 66851
",49.4518819,7.5543118
Ranis,"07389
",50.6638396,11.5675201
Ransbach-Baumbach,"56235
",50.4667,7.73333
Rastatt,"76437
",48.8574209,8.2088088
Rastenberg,"99636
",51.1761837,11.4211488
Rathenow,"14712
",52.6063703,12.3382259
Ratingen,"40878–40885
",51.2973261,6.8493503
Ratzeburg,"23909
",53.7011061,10.774288
Rauenberg,"69231
",49.2672457,8.7036146
Raunheim,"65479
",50.0097685,8.4499439
Rauschenberg,"35282
",50.8833043,8.9166685
Ravensburg,"88212–88214
",47.7811014,9.612468
Ravenstein,"74747
",49.4010818,9.5077722
Recklinghausen,"45657, 45659, 45661, 45663, 45665
",51.6143815,7.1978546
Rees,"46459
",51.7581242,6.3956605
Regen,"94209
",48.9700842,13.1262631
Regensburg,"93047–93059
",49.0195333,12.0974869
Regis-Breitingen,"04565
",51.0889296,12.4396124
Rehau,"95111
",50.2500051,12.0332893
Rehburg-Loccum,"31547
",52.4690166,9.1567507
Rehna,"19217
",53.7811418,11.0487109
Reichelsheim (Wetterau),"61203
",50.3580243,8.8744648
Reichenbach im Vogtland,"08468,08491 (Jägerhaus),08499 (Mylau, Obermylau)Vorlage:Infobox Gemeinde in Deutschland/Wartung/PLZ enthält Text
",50.6219239,12.332118300271976
Reichenbach/O.L.,"02894 (Reichenbach/O.L., Sohland)Vorlage:Infobox Gemeinde in Deutschland/Wartung/PLZ enthält Text
",51.1413085,14.8013577
Reinbek,"21465
",53.5098898,10.2511001
Reinfeld (Holstein),"23854–23858
",53.8300555,10.4869517
Reinheim,"64354,64395 (Hundertmorgen)Vorlage:Infobox Gemeinde in Deutschland/Wartung/PLZ enthält Text
",49.8364879,8.8238238
Remagen,"53424
",50.5792112,7.2286788
Remscheid,"42853–42859, 42897, 42899
",51.1798706,7.1943544
Remseck am Neckar,"71686, 70378
",48.8727053,9.2735947
Renchen,"77871
",48.5873988,8.0143673
Rendsburg,"24768
",54.3000225,9.6516356
Rennerod,"56477
",50.606603,8.0662451
Renningen,"71272
",48.7648163,8.9347008
Rerik,"18230
",54.1067652,11.6171165
Rethem (Aller),"27336
",52.7834554,9.3780422
Reutlingen,"72760–72770
",48.4919508,9.2114144
Rheda-Wiedenbrück,"33378
",51.8428202,8.2985615
Rhede,"46414
",51.8363135,6.696091
Rheinau,"77866
",48.6610699,7.9383334
Rheinbach,"53359
",50.6256808,6.9491436
Rheinberg,"47495
",51.5458979,6.6014097
Rheinböllen,"55494
",50.0063415,7.6708226
Rheine,"48429, 48431, 48432
",52.2797707,7.4373615
Rheinfelden (Baden),"79618
",47.5605924,7.7861959
Rheinsberg,"16818 (Basdorf, Braunsberg),16831 (Großzerlang, Heinrichsdorf, Kleinzerlang, Linow, Rheinsberg, Schwanow, Zechlinerhütte, Zechow, Zühlen),16835 (Dierberg),16837 (Alt Lutterow, Dorf Zechlin, Flecken Zechlin, Kagar, Luhme, Neu Lutterow, Wallitz)Vorlage:Infobox Gemeinde in Deutschland/Wartung/PLZ enthält Text
",53.0983176,12.8910116
Rheinstetten,"76287
",48.968549,8.3097117
Rhens,"56321
",50.281527,7.6162978
Rhinow,"14728
",52.7508589,12.3410614
Ribnitz-Damgarten,"18311
",54.2433326,12.4319733
Richtenberg,"18461
",54.2007307,12.8857023
Riedenburg,"93339
",49.7695116,7.0739322
Riedlingen,"88499
",48.1534412,9.4748796
Riedstadt,"64560
",49.8425212,8.4829447
Rieneck,"97794
",50.0942383,9.6472187
Riesa,"01587, 01589, 01591
",51.3038241,13.308828
Rietberg,"33397
",51.8074106,8.4286614
Rinteln,"31737
",52.1873798,9.0804584
Röbel/Müritz,"17207
",53.3768182,12.6059705
Rochlitz,"09306
",51.0456789,12.7990531
Rockenhausen,"67806
",49.6290332,7.8206451
Rodalben,"66976
",49.2384912,7.6392258
Rodenberg,"31552
",52.3129195,9.3584245
Rödental,"96472
",50.2971914,11.0428276
Rödermark,"63322
",49.9798913,8.8088274
Rodewisch,"08228
",50.5308866,12.4047996
Rodgau,"63110
",50.0176771,8.8853392
Roding,"93426
",49.1887934,12.5224323
Römhild,"98630
",50.3927584,10.5678277
Romrod,"36329
",50.7145445,9.2187448
Ronneburg,"07580
",50.8630523,12.1809073
Ronnenberg,"30952
",52.3166623,9.6532075
Rosbach vor der Höhe,"61191
",50.2990872,8.6967275
Rosenfeld,"72348
",48.2880909,8.7233324
Rosenheim,"83022, 83024, 83026
",47.8539273,12.127262
Rosenthal,"35119
",50.9737599,8.8694202
Rösrath,"51503
",50.8963758,7.1825445
Roßleben-Wiehe,"06571
",51.2914242,11.3965456
Roßwein,"04741
",51.0838863,13.2112442
Rostock,"18055, 18057, 18059,18069,18106, 18107, 18109,18119,18146, 18147,18181, 18182Vorlage:Infobox Gemeinde in Deutschland/Wartung/PLZ enthält Text
",54.0886707,12.1400211
Rotenburg an der Fulda,"36199
",51.018118,9.7487639
Rotenburg (Wümme),"27356
",53.1108906,9.4049292
Roth,"91154
",49.1952934,11.056652343301323
Rötha,"04571
",51.1972196,12.417228
Röthenbach an der Pegnitz,"90552
",49.485011,11.2474853
Rothenburg/O.L.,"02929
",51.3333094,14.9666932
Rothenburg ob der Tauber,"91541
",49.3771899,10.1788809
Rothenfels,"97851
",49.8912549,9.5919615
Rottenburg am Neckar,"72108
",48.47696,8.9336788
Rottenburg a.d.Laaber,"84056
",48.7001539,12.0282878
Röttingen,"97285
",49.511308,9.970905
Rottweil,"78628, 78652
",48.165531,8.6251283
Rötz,"92444
",49.341854,12.5319894
Rüdesheim am Rhein,"65385
",49.9816097,7.9310198
Rudolstadt,"07407
",50.7206063,11.3401985
Ruhla,"99842
",50.8941173,10.3814517
Ruhland,"01945
",51.4590647,13.8656245
Runkel,"65594
",50.4058377,8.1586131
Rüsselsheim am Main,"65428
",49.9819502,8.446357046791874
Rutesheim,"71277
",48.8081226,8.9453257
Rüthen,"59602
",51.4911392,8.4330329
Saalburg-Ebersdorf,"07929
",50.4948382,11.7092902
Saalfeld/Saale,"07318
",50.6479143,11.3610041
Saarbrücken,"66111–66133
",49.234362,6.996379
Saarburg,"54439
",49.6082527,6.548746
Saarlouis,"66740
",49.3164661,6.749846
Sachsenhagen,"31553
",52.3966396,9.2663019
Sachsenheim,"74343
",48.9654062,9.0583956
Salzgitter,"38226, 38228, 38229,38239, 38259Vorlage:Infobox Gemeinde in Deutschland/Wartung/PLZ enthält Text
",52.1503721,10.3593147
Salzkotten,"33154
",51.6624739,8.617459219365298
Salzwedel,"29410
",52.8528456,11.1539699
Sandau (Elbe),"39524
",52.7890696,12.0480053
Sandersdorf-Brehna,"06792 (Sandersdorf und Zscherndorf),06794 (Glebitzsch),06796 (Brehna),06809 (Petersroda, Roitzsch)Vorlage:Infobox Gemeinde in Deutschland/Wartung/PLZ enthält Text
",51.5906898,12.2376054
Sangerhausen,"06526
",51.4729797,11.2981851
Sankt Augustin,"53757
",50.7752776,7.1895507
Sankt Goar,"56329
",50.15,7.71667
Sankt Goarshausen,"56346
",50.1548796,7.7160976
Sarstedt,"31157
",52.2340379,9.8534254
Sassenberg,"48336
",51.9880472,8.0403242
Sassnitz,"18540, 18546
",54.516728,13.644119
Sayda,"09619
",50.7124239,13.4193688
Schalkau,"96528
",50.39506485,10.99067317976472
Schauenstein,"95197
",50.2776388,11.7414272
Scheer,"72516
",48.0731597,9.2965371
Scheibenberg,"09481
",50.5404022,12.9144207
Scheinfeld,"91443
",49.6653406,10.462567
Schelklingen,"89601
",48.3757371,9.7346907
Schenefeld,"22869
",54.0484989,9.4703368
Scheßlitz,"96110
",49.9770848,11.0343944
Schieder-Schwalenberg,"32816
",51.8980505,9.1751832
Schifferstadt,"67105
",49.3858742,8.3705675
Schillingsfürst,"91583
",49.2865282,10.2622902
Schiltach,"77761, 78733
",48.290371,8.3469136
Schirgiswalde-Kirschau,"02681
",51.0860728,14.4320956
Schkeuditz,"04435
",51.3963509,12.2216292
Schkölen,"07619
",51.0408527,11.821197
Schleiden,"53937
",50.5285919,6.4761556
Schleiz,"07907
",50.5590505,11.8040013
Schleswig,"24837
",54.51851,9.5653284
Schlettau,"09487
",50.5575902,12.9502234
Schleusingen,"98553
",50.5416758,10.7669624
Schlieben,"04936
",51.7241402,13.3847709
Schlitz,"36110
",50.6866279,9.5464764
Schloß Holte-Stukenbrock,"33758
",51.9017108,8.6353438
Schlüchtern,"36381
",50.3517,9.5613
Schlüsselfeld,"96132
",49.7569182,10.6186266
Schmalkalden,"98574
",50.7213643,10.4510467
Schmallenberg,"57392
",51.1525937,8.2836014
Schmölln,"04626
",50.90783315,12.337088227335261
Schnackenburg,"29493
",53.036474,11.5644762
Schnaittenbach,"92253
",49.5478302,12.0007006
Schneeberg,"08289
",50.5950694,12.6417008
Schneverdingen,"29640
",53.1165973,9.7925898
Schömberg,"72355
",48.2101661,8.7577596
Schönau,"69250
",49.4366884,8.8090874
Schönau im Schwarzwald,"79677
",47.7861792,7.8933977
Schönberg,"23923
",53.6781808,10.4318363
Schönebeck (Elbe),"39217, 39218
",52.0205998,11.7383277
Schöneck/Vogtl.,"08261
",50.387521050000004,12.34131484566429
Schönewalde,"04916
",51.8142338,13.2279131
Schongau,"86956
",47.8134583,10.8967857
Schöningen,"38364
",52.1388507,10.9671073
Schönsee,"92539
",49.5102734,12.5466459
Schönwald,"95173
",50.1981219,12.0907653
Schopfheim,"79650
",47.6500525,7.8216997
Schöppenstedt,"38170, 38154
",52.1439998,10.7751941
Schorndorf,"73614
",48.8055169,9.5272665
Schortens,"26419
",53.5366547,7.9467348
Schotten,"63679
",50.48726,9.16192
Schramberg,"78144, 78713
",48.225478,8.3852168
Schraplau,"06279
",51.4383844,11.6668362
Schriesheim,"69198
",49.4751705,8.6611149
Schrobenhausen,"86529
",48.5613407,11.2654488
Schrozberg,"74575
",49.3457515,9.9815378
Schüttorf,"48465
",52.321619,7.2220864
Schwaan,"18258
",53.9400696,12.1071145
Schwabach,"91126
",49.3295535,11.0195132
Schwäbisch Gmünd,"73525, 73527, 73529,73072,73550, 73553Vorlage:Infobox Gemeinde in Deutschland/Wartung/PLZ enthält Text
",48.7999036,9.7977584
Schwäbisch Hall,"74523
",49.1123963,9.7369047
Schwabmünchen,"86830
",48.1840821,10.7580502
Schwaigern,"74193
",49.1414205,9.0571085
Schwalbach am Taunus,"65824
",50.1488011,8.5361049
Schwalmstadt,"34613
",50.9128419,9.1882126
Schwandorf,"92421
",49.3261854,12.1092708
Schwanebeck,"39397 (Nienhagen, Schwanebeck)Vorlage:Infobox Gemeinde in Deutschland/Wartung/PLZ enthält Text
",51.96012075,11.11692632078903
Schwarzatal,"98744
",50.5867399,11.125604824959535
Schwarzenbach am Wald,"95131
",50.2835975,11.6271654
Schwarzenbach an der Saale,"95126, 95158
",50.2223578,11.9332653
Schwarzenbek,"21493
",53.503122,10.4785643
Schwarzenberg/Erzgeb.,"08340
",50.5449982,12.7876699
Schwarzenborn,"34639
",50.0390136,6.7113515
Schwarzheide,"01987
",51.4858276,13.8306977
Schwedt/Oder,"16303
",53.0586366,14.2840858
Schweich,"54338
",49.8224303,6.7515418
Schweinfurt,"97421, 97422, 97424
",50.0499945,10.233302
Schwelm,"58332
",51.2841166,7.2924712
Schwentinental,"24222, 24223
",54.2900155,10.2254279
Schwerin,"19053, 19055, 19057, 19059, 19061,19062, 19063Vorlage:Infobox Gemeinde in Deutschland/Wartung/PLZ enthält Text
",53.6288297,11.4148038
Schwerte,"58239
",51.445525,7.5674652
Schwetzingen,"68723
",49.3832919,8.5735135
Sebnitz,"01851–01855
",50.97098,14.2727203
Seehausen (Altmark),"39615
",52.8888609,11.7519908
Seeland,"06449 (Friedrichsaue, Schadeleben),06464 (Frose),06466 (Gatersleben),06467 (Hoym),06469 (Nachterstedt)Vorlage:Infobox Gemeinde in Deutschland/Wartung/PLZ enthält Text
",51.8113675,11.3321165
Seelow,"15306
",52.5318238,14.380704
Seelze,"30926
",52.3964639,9.594287
Seesen,"38723
",51.8905566,10.1703902
Sehnde,"31319
",52.3144002,9.9647193
Seifhennersdorf,"02782
",50.9346533,14.6092022
Selb,"95100
",50.169121,12.1297769
Selbitz,"95152
",50.3139673,11.7485834
Seligenstadt,"63500
",50.0347055,8.9593719
Selm,"59379
",51.7005549,7.468614
Selters (Westerwald),"56242
",50.5203849,7.7337742
Senden,"89250
",48.3243749,10.0468113
Sendenhorst,"48324
",51.8444362,7.8273931
Senftenberg,"01945 (Peickwitz)01968 (Brieske, Großkoschen, Niemtsch, Sedlitz, Senftenberg)01996 (Hosena)Vorlage:Infobox Gemeinde in Deutschland/Wartung/PLZ enthält Text
",51.5191742,14.0046541
Seßlach,"96145
",50.1871223,10.8436513
Siegburg,"53721
",50.7928332,7.2070774
Siegen,"57072–57080
",50.8749804,8.0227233
Sigmaringen,"72488
",48.0855844,9.2178879
Simbach am Inn,"84359
",48.2663113,13.0279972
Simmern/Hunsrück,"55469
",49.9834956,7.5260197
Sindelfingen,"71063, 71065, 71067, 71069
",48.7084162,9.0035455
Singen (Hohentwiel),"78224
",47.7617515,8.8348709
Sinsheim,"74889
",49.2553,8.87722
Sinzig,"53489
",50.5452042,7.2490828
Soest,"59494
",51.5725501,8.1061259
Solingen,"42651, 42653, 42655, 42657, 42659,42697, 42699, 42719Vorlage:Infobox Gemeinde in Deutschland/Wartung/PLZ enthält Text
",51.1721629,7.0845893
Solms,"35606
",50.5333914,8.4073302
Soltau,"29614
",52.9859666,9.8433909
Sömmerda,"99610
",51.1618258,11.1174874
Sondershausen,"99706
",51.3666041,10.8668419
Sonneberg,"96515
",50.3575412,11.1691714
Sonnewalde,"03249
",51.6950885,13.6451223
Sonthofen,"87527
",47.5047006,10.3061977
Sontra,"36205
",51.0831196,9.9542845
Spaichingen,"78549
",48.0730713,8.7391941
Spalt,"91174
",49.1753302,10.9254208
Spangenberg,"34286
",51.1265161,9.7013806
Speicher,"54662
",49.9354628,6.6389817
Spenge,"32139
",52.1419264,8.4830331
Speyer,"67346
",49.3165553,8.433615
Spremberg,"03130
",51.5714513,14.3804302
Springe,"31832
",52.2099318,9.5581577
Sprockhövel,"45549
",51.3666572,7.2485905
Stade,"21680, 21682–21684
",53.599794,9.475438
Stadtallendorf,"35260
",50.82595195,9.036930305228982
Stadtbergen,"86391
",48.3666284,10.8442814
Stadthagen,"31655
",52.3289688,9.2053496
Stadtilm,"99326
",50.774134,11.0805466
Stadtlohn,"48703
",51.9928346,6.9173072
Stadtoldendorf,"37627
",51.8842114,9.6252205
Stadtprozelten,"97909
",49.7809332,9.4053282
Stadtroda,"07646
",50.8582666,11.7263639
Stadtsteinach,"95346
",50.1616746,11.5055461
Stadt Wehlen,"01829
",50.957091,14.0307534
Starnberg,"82319
",48.0001038,11.3508972
Staßfurt,"39418, 39443, 39446
",51.8514515,11.5929455
Staufen im Breisgau,"79219
",47.883211,7.7329262
Staufenberg,"35460
",50.6616049,8.7299749
Stavenhagen,"17153
",53.6952808,12.9082954
St. Blasien,"79837, 79875
",47.7602106,8.131426
Stein,"90547
",49.4139647,11.0130276
Steinach,"96523
",48.28603445,8.031932887802238
Steinau an der Straße,"36396
",50.3556,9.4227
Steinbach-Hallenberg,"98587
",50.698845750000004,10.590509533612243
Steinbach (Taunus),"61449
",50.1672827,8.572208
Steinfurt,"48565
",52.138683,7.3678356
Steinheim,"32839
",51.8660478,9.0942767
Steinheim an der Murr,"71711
",48.970023749999996,9.27707908620491
Stendal,"39576
",52.6050782,11.8594279
Sternberg,"19406
",53.7118374,11.8288314
St. Ingbert,"66386
",49.2788378,7.1156707
St. Georgen im Schwarzwald,"78112
",48.1257642,8.3330247
Stockach,"78333
",47.8565551,9.0123849
Stolberg (Rheinland),"52222, 52223, 52224
",50.7913599,6.230785733333329
Stollberg/Erzgeb.,"09366
",50.7087734,12.7762607
Stolpen,"01833
",51.0492329,14.0830003
Storkow (Mark),"15859
",52.2058093,13.9049798
Stößen,"06667
",51.1142361,11.9237845
Straelen,"47638
",51.4439341,6.2694388
Stralsund,"18435, 18437, 18439
",54.3096314,13.0820846
Strasburg (Uckermark),"17335
",53.5084448,13.7434101
Straubing,"94315
",48.8819801,12.569716
Strausberg,"15344
",52.55892505,13.904242924982515
Strehla,"01616
",51.370557,13.2397429
Stromberg,"55442
",49.9447973,7.7763627
Stühlingen,"79780
",47.7470397,8.4474495
Stutensee,"76297
",49.0895249,8.4856806
Stuttgart,"70173–70619
",48.7784485,9.1800132
St. Wendel,"66606
",49.4787585,7.072434727256018
Südliches Anhalt,"06369 (Glauzig, Görzig, Großbadegast, Libehna, Prosigk, Radegast, Reupzig, Riesdorf, Trebbichau, Weißandt-Gölzau, Zehbitz),06386 (Fraßdorf, Friedrichsdorf, Hinsdorf, Meilendorf, Quellendorf, Scheuder, Storkau),06388 (Edderitz, Gröbzig, Maasdorf, Piethen, Wieskau)Vorlage:Infobox Gemeinde in Deutschland/Wartung/PLZ enthält Text
",51.6916959,12.0666121
Suhl,"98527–98529
",50.6086518,10.6926437
Sulingen,"27232
",52.6828374,8.8018923
Sulz am Neckar,"72172, 72160, 72186
",48.3617509,8.6314329
Sulzbach/Saar,"66280
",49.2995623,7.0614007
Sulzbach-Rosenberg,"92237
",49.4992468,11.7470259
Sulzburg,"79295
",47.8405127,7.7077606
Sundern (Sauerland),"59846, 59831
",51.329832,8.0072645
Süßen,"73079, 73054
",48.6826604,9.7586073
Syke,"28857
",52.9131332,8.8198737
Tambach-Dietharz,"99897
",50.7944768,10.6168081
Tamm,"71732
",48.9244825,9.1237094
Tangerhütte,"39517
",52.4342158,11.8061052
Tangermünde,"39590
",52.5431104,11.9722524
Tann (Rhön),"36142
",50.636953,10.0040118
Tanna,"07922
",50.4896337,11.860657
Tauberbischofsheim,"97941
",49.6229682,9.6627138
Taucha,"04425
",51.39240555,12.512871046584781
Taunusstein,"65232
",50.1393843,8.1505676
Tecklenburg,"49545
",52.2217481,7.8169251
Tegernsee,"83684
",47.7099191,11.7543337
Telgte,"48291
",51.983522,7.784859
Teltow,"14513
",52.4016457,13.2644532
Templin,"17268
",53.1193496,13.5005559
Tengen,"78250
",47.8217629,8.662046
Tessin,"18195
",54.0263099,12.4684089
Teterow,"17166
",53.7709505,12.5753569
Tettnang,"88069
",47.6716558,9.5891158
Teublitz,"93158
",49.2211907,12.085254
Teuchern,"06682
",51.1185488,12.0223935
Teupitz,"15755
",52.135986,13.6098424
Teuschnitz,"96358
",50.397541,11.380875
Thale,"06502
",51.7527606,11.037722
Thalheim/Erzgeb.,"09380
",50.7024268,12.8514034
Thannhausen,"86470
",48.2829292,10.4682347
Tharandt,"01737
",50.9853391,13.5794907
Themar,"98660
",50.5033487,10.6150564
Thum,"09419
",50.6698953,12.952226
Tirschenreuth,"95643
",49.8780234,12.3372095
Titisee-Neustadt,"79822
",47.9173421,8.1735161
Tittmoning,"84529
",48.0621714,12.7676484
Todtnau,"79674
",47.8303378,7.9452378
Töging am Inn,"84513
",48.2547192,12.5864967
Tönisvorst,"47918
",51.3167,6.45
Tönning,"25832
",54.3188928,8.9437049
Torgau,"04860, 04861, 04889
",51.5581272,13.0046538
Torgelow,"17358,17379 (Heinrichsruh)Vorlage:Infobox Gemeinde in Deutschland/Wartung/PLZ enthält Text
",53.6304232,14.0113284
Tornesch,"25436
",53.6959113,9.7114755
Traben-Trarbach,"56841
",49.9530436,7.1233159
Traunreut,"83301, 83368, 83371, 83374Vorlage:Infobox Gemeinde in Deutschland/Wartung/PLZ enthält Text
",47.9627599,12.5952942
Traunstein,"83278
",47.8701474,12.6423403
Trebbin,"14959
",52.2150361,13.2140282
Trebsen/Mulde,"04687
",51.2894732,12.7517578
Treffurt,"99830
",51.1104119,10.2174474
Trendelburg,"34388
",51.5702326,9.3936842
Treuchtlingen,"91757
",48.9554435,10.9089888
Treuen,"08233
",50.5389413,12.3069937
Treuenbrietzen,"14929
",52.0966552,12.8734896
Triberg im Schwarzwald,"78098
",48.133228,8.2331937
Tribsees,"18465
",54.0946272,12.7584066
Trier,"54290, 54292, 54293, 54294, 54295, 54296
",49.7596208,6.6441878
Triptis,"07819
",50.7353974,11.8633794
Trochtelfingen,"72818
",48.307755,9.2448375
Troisdorf,"53840, 53842, 53844
",50.8153071,7.1593271
Trossingen,"78647
",48.07506,8.6362987
Trostberg,"83308
",48.0321101,12.5654359
Tübingen,"72070, 72072, 72074, 72076
",48.5236164,9.0535531
Tuttlingen,"78532
",47.9844315,8.8186606
Twistringen,"27239
",52.7992604,8.6421452
Übach-Palenberg,"52531
",50.9213799,6.1128698
Überlingen,"88662
",47.7667246,9.1666488
Uebigau-Wahrenbrück,"04924 (Wahrenbrück (mit Zinsdorf), Beiersdorf, Beutersitz, Bönitz, Domsdorf, Kauxdorf, Marxdorf, Prestewitz, Rothstein, Wildgrube, Winkel),04938 (Uebigau mit Bomsdorf und München, Drasdo, Langennaundorf, Wiederau),04895 (Bahnsdorf, Neudeck, Saxdorf)Vorlage:Infobox Gemeinde in Deutschland/Wartung/PLZ enthält Text
",51.5743703,13.3431138
Ueckermünde,"17373
",53.7371069,14.0458887
Uelzen,"29525
",52.9840679,10.538588154650403
Uetersen,"25436
",53.6851608,9.669827
Uffenheim,"97215
",49.5440036,10.2343701
Uhingen,"73066
",48.7042331,9.5856424
Ulm,"89073–89081
",48.3973957,9.9934104
Ulmen,"56766
",50.2082684,6.979957
Ulrichstein,"35327
",50.5759667,9.1929639
Ummerstadt,"98663
",50.2591258,10.81115
Unkel,"53572
",50.5996127,7.2157397
Unna,"59423, 59425, 59427
",51.5348835,7.689014
Unterschleißheim,"85716
",48.2730686,11.5702716
Usedom,"17406
",53.9905064,14.082945091597797
Usingen,"61250
",50.3342403,8.5369972
Uslar,"37170
",51.658901,9.6347785
Vacha,"36404
",50.8272621,10.0213868
Vaihingen an der Enz,"71665
",48.9321398,8.9568316
Vallendar,"56179
",50.4001381,7.6142479
Varel,"26316
",53.395777,8.1372149
Vechta,"49377
",52.7310691,8.2873162
Velbert,"42549, 42551, 42553, 42555
",51.3406713,7.0439912
Velburg,"92355
",49.2330244,11.6716022
Velden,"91235
",49.6135225,11.5109171
Vellberg,"74541
",49.0864261,9.8812131
Velen,"46342
",51.8957136,6.9839073
Vellmar,"34246
",51.3622487,9.4692331
Velten,"16727
",52.6882194,13.1775867
Verden (Aller),"27283
",52.9219073,9.2286737
Veringenstadt,"72519
",48.1842669,9.2087391
Verl,"33415
",51.5533457,7.9155558
Versmold,"33775
",52.0416747,8.1493878
Vetschau/Spreewald,"03226
",51.7826993,14.0747958
Viechtach,"94234
",49.0800743,12.8862723
Viernheim,"68519
",49.5401213,8.5785313
Viersen,"41747, 41748, 41749, 41751
",51.2562118,6.3905476
Villingen-Schwenningen,"78048–78056
",48.0632359,8.4945022
Vilsbiburg,"84137
",48.448482,12.355795
Vilseck,"92249
",49.6118985,11.8037554
Vilshofen an der Donau,"94474
",48.633762,13.1868461
Visselhövede,"27374
",52.9849747,9.5777771
Vlotho,"32602
",52.1664861,8.8619172
Voerde (Niederrhein),"46562
",51.5975224,6.6811994
Vogtsburg im Kaiserstuhl,"79235
",48.0826236,7.6236716
Vohburg an der Donau,"85088
",48.7672231,11.6239384
Vohenstrauß,"92648
",49.6238348,12.341436
Vöhrenbach,"78147
",48.0458156,8.3039184
Vöhringen,"89269
",48.2833039,10.0832982
Volkach,"97332
",49.8621966,10.2314694
Völklingen,"66333
",49.2522866,6.859519
Volkmarsen,"34471
",51.4230543,9.0971197
Vreden,"48691
",52.035862,6.8236481
Wachenheim an der Weinstraße,"67157
",49.4410363,8.1815115
Wächtersbach,"63607
",50.2724,9.2857
Wadern,"66687
",49.5410205,6.8889313
Waghäusel,"68753
",49.2485721,8.516277
Wahlstedt,"23812
",53.9528957,10.2121481
Waiblingen,"71332, 71334, 71336
",48.8325659,9.3163822
Waibstadt,"74915
",49.2978738,8.9205595
Waischenfeld,"91344
",49.8465726,11.345002
Waldbröl,"51545
",50.8751813,7.6159479
Waldeck,"34513,34516 (Fürstental)Vorlage:Infobox Gemeinde in Deutschland/Wartung/PLZ enthält Text
",51.2425113,9.0381211
Waldenbuch,"71111
",48.6374291,9.1312415
Waldenburg,"08396
",50.8743975,12.6003812
Waldenburg,"74638, 74545
",50.8743975,12.6003812
Waldershof,"95679
",49.9829487,12.0663612
Waldheim,"04736
",51.0770643,13.0157798
Waldkappel,"37284
",51.1351872,9.8568782
Waldkirch,"79183
",48.0939396,7.9610142
Waldkirchen,"94065
",48.7300239,13.6015841
Waldkraiburg,"84478
",48.2058812,12.4044209
Waldmohr,"66914
",49.3876652,7.3351606
Waldmünchen,"93449
",49.3775728,12.7062127
Waldsassen,"95652
",50.0053222,12.3041123
Waldshut-Tiengen,"79761
",47.6281754,8.2408579
Walldorf,"69190
",49.3038134,8.6433518
Walldürn,"74731, 63928
",49.5833,9.36667
Wallenfels,"96346
",50.2691372,11.4701616
Walsrode,"29664, 29699
",52.8625395,9.5883023
Waltershausen,"99880
",50.897728,10.5035734
Waltrop,"45731
",51.6237456,7.400959
Wanfried,"37281
",51.1714,10.1841616
Wangen im Allgäu,"88239
",47.6856552,9.8342247
Wanzleben-Börde,"39164
",52.0758511,11.420522227338772
Warburg,"34414
",51.4886533,9.1488385
Waren (Müritz),"17192
",53.5156249,12.6850606
Warendorf,"48231
",51.9532449,7.9912335
Warin,"19417
",53.7998004,11.7043569
Warstein,"59581
",51.4458105,8.3536824
Wassenberg,"41849
",51.1007618,6.1561074
Wasserburg am Inn,"83512
",48.0615171,12.220026
Wassertrüdingen,"91717
",49.0406727,10.5969426
Wasungen,"98634
",50.6642615,10.367141
Wedel,"22880
",53.5810226,9.7038772
Weener,"26826
",53.1645939,7.3536239
Wegberg,"41844
",51.1423588,6.2776865
Wegeleben,"38828 (Rodersdorf, Wegeleben)Vorlage:Infobox Gemeinde in Deutschland/Wartung/PLZ enthält Text
",51.8850182,11.1747108
Wehr,"79664
",49.5892164,6.37869
Weida,"07570
",50.7581426,12.0470063
Weiden in der Oberpfalz,"92637
",49.6752749,12.1631636
Weikersheim,"97990
",49.4806,9.905
Weil am Rhein,"79576
",47.5932802,7.6116133
Weilburg,"35781
",50.4823062,8.2669053
Weil der Stadt,"71263
",48.7501041,8.8707147
Weilheim an der Teck,"73235
",48.6153949,9.5383156
Weilheim in Oberbayern,"82362
",47.8475207,11.1485495
Weimar,"99423, 99425, 99427, 99428
",50.9810486,11.3296637
Weingarten,"88250
",47.8075299,9.6431145
Weinheim,"69469
",49.5462349,8.6717458
Weinsberg,"74189
",49.1504172,9.2865471
Weinstadt,"71384
",48.8085568,9.3774813
Weismain,"96260
",50.0850003,11.2400354
Weißenberg,"02627
",51.1968328,14.658726
Weißenburg in Bayern,"91781
",49.0305748,10.9718974
Weißenfels,"06667, 06688
",51.1999793,11.9667857
Weißenhorn,"89264
",48.3044877,10.1601492
Weißensee,"99631
",52.5546193,13.4630018
Weißenstadt,"95163
",50.1014733,11.8847041
Weißenthurm,"56575
",50.4145192,7.4557539
Weißwasser/O.L.,"02943
",51.5028807,14.6373221
Weiterstadt,"64331
",49.9178,8.5924
Welzheim,"73642
",48.8749241,9.6347406
Welzow,"03119
",51.5837853,14.1706028
Wemding,"86650
",48.8745463,10.7240157
Wendlingen am Neckar,"73240
",48.6727602,9.3838404
Werben (Elbe),"39615,39539 (Neuwerben)Vorlage:Infobox Gemeinde in Deutschland/Wartung/PLZ enthält Text
",52.83966395,11.991696905090997
Werdau,"08412
",50.7361377,12.3763847
Werder (Havel),"14542
",52.3715809,12.9329125
Werdohl,"58791
",51.257732,7.7642148
Werl,"59457
",51.5533457,7.9155558
Werlte,"49757
",52.8518701,7.6764179
Wermelskirchen,"42929
",51.1406481,7.2156901
Wernau (Neckar),"73249
",48.6943334,9.4189845
Werne,"59368
",51.66268,7.6355052
Werneuchen,"16356
",52.6334769,13.7340939
Wernigerode,"38855, 38875, 38879Vorlage:Infobox Gemeinde in Deutschland/Wartung/PLZ enthält Text
",51.8344172,10.7862526
Werra-Suhl-Tal,"99837
",50.9214071,10.0883617
Wertheim,"97877
",49.7599825,9.5166598
Werther (Westf.),"33824
",52.07408955,8.404748757687274
Wertingen,"86637
",48.5601209,10.6808075
Wesel,"46483, 46485, 46487
",51.6576909,6.617087
Wesenberg,"17255
",53.2819098,12.9694804
Wesselburen,"25764
",54.2123426,8.9217594
Wesseling,"50389
",50.8247166,6.9810852
Westerburg,"56457
",50.5622605,7.9693269
Westerstede,"26655
",53.2575197,7.9273367
Wetter (Hessen),"35083
",50.903916,8.7288444
Wetter (Ruhr),"58300
",51.3879463,7.3951553
Wettin-Löbejün,"06193
",51.601330450000006,11.841052130864757
Wetzlar,"35576–35586
",50.5525346,8.5074406
Widdern,"74259
",49.3180932,9.4217233
Wiehl,"51674
",50.9478489,7.5530059
Wiesbaden,"65183–65207,55246, 55252Vorlage:Infobox Gemeinde in Deutschland/Wartung/PLZ enthält Text
",50.0820384,8.2416556
Wiesmoor,"26639
",53.4114442,7.7309444
Wiesensteig,"73349
",48.5620891,9.6264045
Wiesloch,"69168
",49.2942599,8.698707
Wildau,"15745
",52.3214429,13.6348744
Wildberg,"72218
",53.6530029,13.1232854
Wildenfels,"08134
",50.6660384,12.6090525
Wildeshausen,"27793
",52.897103,8.4364342
Wilhelmshaven,"26382–26389
",53.5278793,8.106301
Wilkau-Haßlau,"08112
",50.6750523,12.5115613
Willebadessen,"34439
",51.6257785,9.034262
Willich,"47877
",51.2641433,6.5446958
Wilsdruff,"01723 (Grumbach, Helbigsdorf-Blankenstein, Kesselsdorf, Mohorn, Wilsdruff),01737 (Braunsdorf, Kleinopitz, Oberhermsdorf)Vorlage:Infobox Gemeinde in Deutschland/Wartung/PLZ enthält Text
",51.0524125,13.5362765
Wilster,"25554
",53.9233519,9.3741366
Wilthen,"02679–02681
",51.0952854,14.3946921
Windischeschenbach,"92670
",49.8007569,12.1565859
Windsbach,"91575
",49.2489226,10.8290611
Winnenden,"71364
",48.8754571,9.3978478
Winsen (Luhe),"21423
",53.3636474,10.2059206
Winterberg,"59955
",51.1930723,8.5338466
Wipperfürth,"51688
",51.1155182,7.3879068
Wirges,"56422
",50.4700819,7.7956173
Wismar,"23966, 23968, 23970
",53.8909832,11.4647932
Wissen,"57537
",50.7829232,7.7344766
Witten,"58452–58456
",51.4370171,7.335124
Wittenberg,"06886, 06888, 06889
",51.8666527,12.646761
Wittenberge,"19322
",53.01128765,11.737429644132689
Wittenburg,"19243
",53.505962,11.084783
Wittichenau,"02997
",51.3850743,14.2435979
Wittlich,"54516
",49.9850353,6.88844
Wittingen,"29378, 29379
",52.7289399,10.735743
Wittmund,"26409
",53.53647865,7.746233388286542
Wittstock/Dosse,"16909
",53.162999,12.4868962
Witzenhausen,"37213–37218
",51.3331901,9.8434192
Woldegk,"17348
",53.4592923,13.5833378
Wolfach,"77709
",48.2985845,8.222608
Wolfenbüttel,"38300, 38302, 38304
",52.1625283,10.5348215
Wolfhagen,"34466
",51.3333355,9.1968854
Wolframs-Eschenbach,"91639
",49.2266868,10.7253044
Wolfratshausen,"82515
",47.9104632,11.4266377
Wolfsburg,"38440–38448
",52.4205588,10.7861682
Wolfstein,"67752
",49.5829885,7.606534
Wolgast,"17438
",54.0536473,13.7757809
Wolkenstein,"09429
",50.6557148,13.0664608
Wolmirstedt,"39326 (Elbeu, Farsleben, Glindenberg, Mose, Wolmirstedt)Vorlage:Infobox Gemeinde in Deutschland/Wartung/PLZ enthält Text
",52.2484924,11.6267388
Worms,"67547, 67549, 67550, 67551
",49.6302618,8.3620898
Wörrstadt,"55286
",49.8388822,8.1168059
Wörth am Main,"63939
",49.7955109,9.1574558
Wörth am Rhein,"76744
",49.0543232,8.2667399
Wörth an der Donau,"93086
",49.0012229,12.4041615
Wriezen,"16269
",52.7167845,14.1365723
Wülfrath,"42489
",51.2818569,7.0328063
Wunsiedel,"95632
",50.0373241,12.0027278
Wunstorf,"31515
",52.4257979,9.4294425
Wuppertal,"42103–42399
",51.264018,7.1780374
Würselen,"52146
",50.8178682,6.1341108
Wurzbach,"07343
",50.4637381,11.5372317
Würzburg,"97070–97084
",49.79245,9.932966
Wurzen,"04808
",51.37138245,12.748182292058097
Wustrow (Wendland),"29462
",52.9244392,11.1198618
Wyk auf Föhr,"25938
",54.6892888,8.5561518
Xanten,"46509
",51.661519,6.4543203
Zahna-Elster,"06895
",51.8814693,12.8126754
Zarrentin am Schaalsee,"19246
",53.5497556,10.9169686
Zehdenick,"16792
",52.9794838,13.3348959
Zeil am Main,"97475
",50.0137529,10.5948036
Zeitz,"06711, 06712
",51.0491637,12.1349991
Zell am Harmersbach,"77736
",48.3482133,8.0653343
Zell im Wiesental,"79669
",47.7054471,7.8476208
Zell (Mosel),"56856
",50.0275681,7.1813233
Zella-Mehlis,"98544
",50.6574735,10.6727728
Zerbst/Anhalt,"39261,39264 (Bias, Bornum, Buhlendorf, Deetz, Dobritz, Gehrden, Gödnitz, Grimme, Güterglück, Hohenlepte, Jütrichau, Leps, Lindau, Luso, Moritz, Nedlitz, Nutha, Polenzko, Pulspforde, Reuden, Steutz, Straguth, Walternienburg, Zernitz)Vorlage:Infobox Gemeinde in Deutschland/Wartung/PLZ enthält Text
",51.9640339,12.085502
Zeulenroda-Triebes,"07937, 07950
",50.6562697,12.0058399
Zeven,"27404
",53.299291,9.280382
Ziegenrück,"07924
",50.6143209,11.6507127
Zierenberg,"34289
",51.3678614,9.3001694
Ziesar,"14793
",52.2652873,12.2898896
Zirndorf,"90513
",49.445762,10.9560462
Zittau,"02763,02788 (Dittelsdorf, Hirschfelde, Schlegel, Wittgendorf)Vorlage:Infobox Gemeinde in Deutschland/Wartung/PLZ enthält Text
",50.8960964,14.8064807
Zörbig,"06780
",51.6291126,12.1175042
Zossen,"15806
",52.2159073,13.4488958
Zschopau,"09405,09434 (Krumhermersdorf)Vorlage:Infobox Gemeinde in Deutschland/Wartung/PLZ enthält Text
",50.7469606,13.0695613
Zülpich,"53909
",50.6922459,6.6472694
Zweibrücken,"66482
",49.248655,7.3641981
Zwenkau,"04442
",51.2182735,12.324152
Zwickau,"08056, 08058, 08060, 08062, 08064, 08066
",50.7185043,12.4939267
Zwiesel,"94227
",49.0130274,13.2307617
Zwingenberg,"64673
",49.7242,8.5915
Zwönitz,"08297
",50.6301029,12.8131994
